id,phone_number,street_address,hospital_name,longitude,latitude,province,city,detailcity
1,053-357-2739,대구광역시 북구 옥산로 120 (고성동3가),푸른동물병원,343401,265934,대구광역시,북구,고성동3가 1-5
2,581-2301,충청남도 천안시 서북구 성환읍 성환1로 235,충일,211324,379359,충청남도,천안시,서북구 성환읍 성환리 449-118
3,02-2060-0999,"서울특별시 양천구 목동남로2길 21, 쌍용빌딩 4층 (신정동)",캐슬동물종합병원,187954,445074,서울특별시,양천구,신정동 202-13 쌍용빌딩 4층
4,033-257-7533,"강원특별자치도 춘천시 공지로 159, 1층 (석사동)",미래종합동물병원,265448,484407,강원특별자치도,춘천시,석사동 431-5
5,751-6960,경상북도 경주시 산내면 의곡2길 17-1,의곡동물병원,385088,252676,경상북도,경주시,산내면 의곡리 113-27번지
6,033-553-4000,"강원특별자치도 태백시 고원로 49, 태백축협 2층 (황지동)",동해삼척태백축협 상장지점 동물병원,376534,408270,강원특별자치도,태백시,황지동 215-24 태백축협
7,681-3568,강원특별자치도 고성군 간성읍 건봉사로 6-72,고성축협 동물병원,326276,543652,강원특별자치도,고성군,간성읍 교동리 58-13
8,292-3797,경기도 수원시 권선구 매송고색로 696-6 (고색동),정우동물병원,198208,416499,경기도,수원시,권선구 고색동 382-3
9,031-213-3050,경기도 수원시 영통구 산남로90번길 23 (매탄동),오동물병원,204436,418751,경기도,수원시,영통구 매탄동 111-138
10,054-244-2200,경상북도 포항시 남구 포스코대로 78 (이동),최지승 동물병원,410349,283094,경상북도,포항시,남구 이동 52
11,544-2342,충청북도 보은군 보은읍 보은로 90-1,서울동물병원,264338,331500,충청북도,보은군,보은읍 삼산리 40-4
12,7323827,서울특별시 종로구 자하문로 66-2 (효자동),효자동물병원,197365,453303,서울특별시,종로구,효자동 31번지
16,051-862-1188,부산광역시 연제구 거제시장로 18-6 (거제동),솔로몬동물병원,388659,188856,부산광역시,연제구,거제동 574-21번지
17,064-741-6724,제주특별자치도 제주시 애월읍 산록서로 678-207,제주한라대학교 부설동물병원,148327,-11061,제주특별자치도,제주시,애월읍 광령리 604-1번지
18,984-1273,대구광역시 동구 팔공로 142 (불로동),아양동물병원,348069,269153,대구광역시,동구,불로동 460-23번지
19,772-2246,경기도 양평군 양평읍 대흥로 106-31,협성동물병원,247667,442602,경기도,양평군,양평읍 대흥리 553-1번지
20,031-898-3708,경기도 용인시 기흥구 보정로 32 (보정동),보정동물병원,209787,423563,경기도,용인시,기흥구 보정동 1277번지
21,031-758-8878,"경기도 성남시 수정구 오야남로12번길 12-2, 1층 (오야동)",어강동물병원,209274,439137,경기도,성남시,수정구 오야동 249-1번지
22,032-441-5155,"인천광역시 남동구 구월로 41 (간석동,1호내)",위드동물병원,172932,439549,인천광역시,남동구,간석동 900-138번지 1호내
23,032-863-7582,인천광역시 미추홀구 인하로 271-3 (주안동),닥터파파동물병원,171474,438510,인천광역시,미추홀구,주안동 1462-12번지
24,643-3601,전라북도 임실군 임실읍 운수로 6,임실축협 동물병원,225493,235160,전라북도,임실군,임실읍 이도리 182-4번지
25,063-445-3909,전라북도 군산시 중앙로 80 (중앙로3가),시민동물병원,174577,275685,전라북도,군산시,중앙로3가 33-1번지
26,774-9975,경상북도 경주시 천북면 산업로 4694-4,가나동물병원,402128,268451,경상북도,경주시,천북면 신당리 1126-3
27,434-2385,전라남도 강진군 강진읍 동성로 23-1,강진동물병원,179198,126957,전라남도,강진군,강진읍 동성리 188번지
28,637-7589,대전광역시 동구 동대전로 162 (자양동),비래동물병원,240096,315129,대전광역시,동구,자양동 66-24번지
29,295-0079,경기도 수원시 권선구 매실로69번길 18 (호매실동),칠보 동물병원,196202,418609,경기도,수원시,권선구 호매실동 82-3
30,504-9189,부산광역시 동래구 아시아드대로 213 (온천동),사직동물병원,388087,191298,부산광역시,동래구,온천동 1250-21번지
31,356-0088,경상남도 밀양시 단장면 안법1길 65,금곡동물병원,368325,222432,경상남도,밀양시,단장면 안법리 169-2번지
32,23727288,"서울특별시 마포구 월드컵북로38길 14, 4층 (중동)",성산연세약국,191427,452028,서울특별시,마포구,중동 64-23
33,351-3393,경기도 화성시 우정읍 조암남로 22,우 동물병원,183748,397940,경기도,화성시,우정읍 조암리 350-11
34,313526633,경기도 화성시 향남읍 행정서로2길 28-37,신동물메디컬센터,192385,403271,경기도,화성시,향남읍 행정리 417-14
36,379-7575,서울특별시 종로구 진흥로 473 (신영동),월드펫동물병원,196445,455996,서울특별시,종로구,신영동 249-6번지
37,571-9114,광주광역시 북구 양일로305번길 8 (일곡동),일곡동물병원,190563,189333,광주광역시,북구,일곡동 843-5번지
38,062-574-7975,"광주광역시 북구 하서로 371, 1층 (양산동)",참좋은 동물병원,188403,189882,광주광역시,북구,양산동 254-123
39,062-419-7582,광주광역시 북구 중문로 74 (우산동),빛고을 동물의료센터,192695,186661,광주광역시,북구,우산동 609-3
40,062-571-0011,광주광역시 북구 하백로5번길 1 (매곡동),24시 언제나 동물병원,189946,187638,광주광역시,북구,매곡동 370-7번지
41,526-3575,광주광역시 북구 서암대로 167 (신안동),유동물병원,191045,185577,광주광역시,북구,신안동 479-36
42,062-576-7585,광주광역시 북구 설죽로471번길 101-102 (삼각동),이든동물병원,190723,189130,광주광역시,북구,삼각동 780-1
43,062-574-8276,"광주광역시 북구 하서로 652-15, 2층 (지야동)",소담동물병원(출장전문),189626,192397,광주광역시,북구,지야동 803-11
44,062-571-2808,"광주광역시 북구 본촌마을길 27, 동물보호소 (본촌동)",광주동물보호소 부속동물병원,189133,191478,광주광역시,북구,본촌동 378-6 동물보호소
45,053-950-6898,"대구광역시 북구 대학로 80 (산격동, 경북대학교 수의과대학)",경북대학교 수의과대학 부속동물병원,345300,266806,대구광역시,북구,산격동 1370-1 경북대학교 수의과대학
46,053-384-9907,대구광역시 북구 검단북로 154 (검단동),대구축협동물병원,346441,269593,대구광역시,북구,검단동 700-2
47,325-7579,대구광역시 북구 칠곡중앙대로 483 (관음동),강동물병원,339729,272060,대구광역시,북구,관음동 1383-14
48,053-312-7975,대구광역시 북구 칠곡중앙대로 189 (태전동),다온동물병원,339666,269187,대구광역시,북구,태전동 1113
49,053-352-1998,"대구광역시 북구 침산로21길 23 (칠성동2가, 침산1차푸르지오)",신한동물병원,343319,266168,대구광역시,북구,칠성동2가 2-2
50,322-0041,대구광역시 북구 칠곡중앙대로 531 (읍내동),동명동물병원,339826,272539,대구광역시,북구,읍내동 781-1
51,324-0116,대구광역시 북구 대천로 72-1 (동천동),굿모닝동물병원,340446,271863,대구광역시,북구,동천동 932-4
52,954-3395,대구광역시 북구 산격로 109 (산격동),가나동물병원,345124,267760,대구광역시,북구,산격동 1216-4
53,053-322-9075,대구광역시 북구 칠곡중앙대로 471 (관음동),늘푸른종합동물병원,339700,271940,대구광역시,북구,관음동 1386-7
54,053-314-0075,"대구광역시 북구 동암로12길 8, 2층 (동천동, 칠곡홈플러스)",도그플러스 동물병원(미유펫 대구점),340321,272736,대구광역시,북구,동천동 668-1 13통5반 칠곡홈플러스 301호
55,053-326-2557,"대구광역시 북구 학정로 149, 한우리메디타워 2층 204호 (태전동)",순풍동물병원,339911,270115,대구광역시,북구,태전동 1195
56,02-831-0075,"서울특별시 영등포구 가마산로 449-1, 영민빌딩 1층 (신길동)",다움동물병원,191647,444845,서울특별시,영등포구,신길동 324-49 영민빌딩 1층
57,055-533-8292,경상남도 창녕군 창녕읍 갈전길 153,창녕축협동물병원,334432,230336,경상남도,창녕군,창녕읍 하리 421-1
58,055-532-0636,경상남도 창녕군 창녕읍 창녕대로 153-1,광진동물병원,336046,226930,경상남도,창녕군,창녕읍 말흘리 747-11번지
59,055-521-0438,경상남도 창녕군 영산면 영산장마로 745,김수의과병원&lt;산업동물출장진료전문병원&gt;,338401,218611,경상남도,창녕군,영산면 서리 216-9번지
60,055-6737194,경상남도 고성군 고성읍 송학고분로 317,미소종합동물병원,320884,165546,경상남도,고성군,고성읍 송학리 416-58번지
61,055-673-8875,경상남도 고성군 고성읍 남포로 75-3,서울동물병원,320499,164234,경상남도,고성군,고성읍 수남리 542-31번지
62,055-963-4569,경상남도 함양군 함양읍 함양로 1182-1,현대동물병원(출장진료전문병원),266045,225183,경상남도,함양군,함양읍 교산리 189-1번지 6통2반
63,055-964-0095,경상남도 함양군 함양읍 중앙시장길 17 (신성가축병원),신성가축병원,266159,224481,경상남도,함양군,함양읍 용평리 646-2번지
64,559638875,"경상남도 함양군 함양읍 용평중앙길 43, 1층 105호",함양동물병원,266266,224642,경상남도,함양군,함양읍 용평리 628-7번지 105호
65,556-8207,충청남도 천안시 동남구 청수11로 12 (청당동),천안축산업협동조합 부설동물병원,213642,364583,충청남도,천안시,동남구 청당동 511
66,571-9318,충청남도 천안시 서북구 쌍용대로 51 (쌍용동),우리동물병원,211655,366748,충청남도,천안시,서북구 쌍용동 1169번지
67,567-4723,충청남도 천안시 동남구 충무로 475 (원성동),장원동물병원(출장진료전문 동물병원),214029,366400,충청남도,천안시,동남구 원성동 587-10
68,582-9600,충청남도 천안시 서북구 성환읍 매주4길 20,하나동물병원,211330,378910,충청남도,천안시,서북구 성환읍 매주리 330-1
69,041-568-7277,충청남도 천안시 동남구 대흥로 320 (성황동),그림동물병원,213381,368329,충청남도,천안시,동남구 성황동 10-16번지
70,523-0275,충청남도 천안시 동남구 터미널2로 8 (신부동),에니펫동물병원,214071,368703,충청남도,천안시,동남구 신부동 816번지 대흥빌딩
71,568-7533,"충청남도 천안시 서북구 두정로 203 (두정동,주차빌딩101)",펫프렌즈동물병원,212383,370291,충청남도,천안시,서북구 두정동 1263번지 주차빌딩101
72,572-8275,"충청남도 천안시 서북구 월봉로 85, 쌍용메디칼 (쌍용동)",김수영 동물병원,210450,366338,충청남도,천안시,서북구 쌍용동 1544-1번지 쌍용메디칼
73,334-1666,충청남도 예산군 예산읍 대학로 54 (공주대학교 산업과학대학 내),충남야생동물구조센터,187384,352104,충청남도,예산군,예산읍 대회리 1 공주대학교 산업과학대학 내
74,335-1023,충청남도 예산군 예산읍 벚꽃로 153,KU건국동물병원,185301,354782,충청남도,예산군,예산읍 산성리
75,041-557-8575,충청남도 천안시 동남구 중앙로 281-2 (신부동),고려동물병원,213530,369125,충청남도,천안시,동남구 신부동 319-37번지
76,544-8834,"충청남도 천안시 동남구 청수로 98 (청수동, 청솔LG아파트 상가 지하1층1호)",다산동물병원,214005,365624,충청남도,천안시,동남구 청수동 261번지 청솔LG아파트 상가 지하1층1호
77,553-5534,"충청남도 천안시 동남구 남부대로 344, 1층 (청당동)",가온동물병원,213772,364402,충청남도,천안시,동남구 청당동 153-15
78,564-0075,"충청남도 천안시 동남구 대흥로 339, 천광빌딩 (신부동)",열린동물병원,213448,368527,충청남도,천안시,동남구 신부동 388-5번지 천광빌딩
79,041-551-5659,충청남도 천안시 동남구 충절로 437 (삼룡동),서일동물병원,215243,364670,충청남도,천안시,동남구 삼룡동 146-28
80,041-565-5297,충청남도 천안시 동남구 풍세로 614 (신방동),유일동물병원(산업동물에 대한 출장진료를 전문으로 함.),211746,362967,충청남도,천안시,동남구 신방동 263-3번지
81,578-4575,충청남도 천안시 동남구 통정10로 33-10 (신방동),나음동물병원,211728,363608,충청남도,천안시,동남구 신방동 1536번지
82,579-8252,"충청남도 천안시 동남구 수곡2길 8-3, 이화빌딩 (신방동)",다솜동물병원,211392,365299,충청남도,천안시,동남구 신방동 49-14번지 이화빌딩
83,041-900-7582,"충청남도 천안시 동남구 봉정로 6, 2층 (봉명동)",치유동물병원,212375,366829,충청남도,천안시,동남구 봉명동 32-1
84,041-557-8275,충청남도 천안시 동남구 충절로 35 (신부동),서울88동물의료원,214080,368281,충청남도,천안시,동남구 신부동 88-3
85,041-555-7575,충청남도 천안시 동남구 원거리7길 2 (원성동),중앙동물병원,213653,366407,충청남도,천안시,동남구 원성동 601-1번지
86,041-551-5989,충청남도 천안시 동남구 대흥로 94-1 (영성동),녹십자,213489,366450,충청남도,천안시,동남구 영성동 67-3번지 18통3반
87,581-4414,충청남도 천안시 서북구 성환읍 성환1로 116,천안공주낙농축산업협동조합부설동물병원,211460,378147,충청남도,천안시,서북구 성환읍 매주리 435-1
88,570-1378,충청남도 천안시 동남구 차돌로 50 (다가동),대전충남 양돈축산업협동조합 부설동물병원,212079,366603,충청남도,천안시,동남구 다가동 373-3
89,043-643-3037,충청북도 제천시 의병대로 55-3 (명동),한일동물병원,307181,404632,충청북도,제천시,명동 11-9번지
90,645-8272,충청북도 제천시 원뜰로 34 (하소동),명진동물병원,306118,404161,충청북도,제천시,하소동 165-59번지
91,043-652-7582,"충청북도 제천시 죽하로 5, 1층 (장락동)",제천 그레이스 동물병원,308530,406307,충청북도,제천시,장락동 635-27
92,043-872-2262,충청북도 음성군 음성읍 중앙로 142,음성동물병원,261398,381891,충청북도,음성군,음성읍 읍내리 549-12 6통3반
93,872-7747,충청북도 음성군 음성읍 중앙로40번길 24,남영가축병원 (출장진료전문병원),261591,380889,충청북도,음성군,음성읍 읍내리 398-7번지
94,043-535-6426,충청북도 음성군 대소면 대금로54번길 8,반석가금진료연구소,240160,387198,충청북도,음성군,대소면 대풍리 524-2
95,438837511,충청북도 음성군 대소면 대금로 502,대소동물병원,243886,385136,충청북도,음성군,대소면 태생리 519번지
96,043-882-7975,"충청북도 음성군 맹동면 대하1길 4, 위너스타워 2층 205, 206호",그린벨동물의료센터,248149,378611,충청북도,음성군,맹동면 동성리 501
97,873-9303,충청북도 음성군 음성읍 시장로 99,음성축산업협동조합 동물병원,261585,381861,충청북도,음성군,음성읍 읍내리 314-9
98,043-647-6100,충청북도 제천시 의림대로15길 24 (중앙로2가),진주동물병원,307433,404886,충청북도,제천시,중앙로2가 27-10번지 9통3반
99,2237-3366,"서울특별시 중구 다산로 175, 명덕빌딩 (신당동)",바우미우동물병원,201065,450780,서울특별시,중구,신당동 336-3 명덕빌딩
100,2278-0075,서울특별시 중구 퇴계로 254-1 (묵정동),황동물병원,199931,451121,서울특별시,중구,묵정동 32-1
101,928-5599,서울특별시 성북구 보문로 137 (보문동2가),서울종합동물병원,201538,453867,서울특별시,성북구,보문동2가 49번지
102,918-3344,"서울특별시 성북구 화랑로 299, 2층 210호 (장위동, 석계역 한일노벨리아시티)",대학동물병원,205326,456806,서울특별시,성북구,장위동 8-2 석계역 한일노벨리아시티 210호
103,924-4555,서울특별시 성북구 종암로 65 (종암동),강북동물병원,203036,454877,서울특별시,성북구,종암동 19-1번지
104,02-969-7582,서울특별시 은평구 백련산로 145 (응암동),스머프동물병원,193315,455101,서울특별시,은평구,응암동 194-23
105,02-356-8353,"서울특별시 은평구 불광로 60, 1층 (불광동)",다루동물병원,193936,456674,서울특별시,은평구,불광동 554-1번지 1층
106,02-388-0275,서울특별시 은평구 역말로 7 (역촌동),도담동물병원,192085,455937,서울특별시,은평구,역촌동 51-22번지
107,386-6092,서울특별시 은평구 서오릉로 192 (갈현동),미래동물병원,192190,456831,서울특별시,은평구,갈현동 498-3번지
108,382-3243,서울특별시 은평구 서오릉로 140 (대조동),더독동물병원,192656,456562,서울특별시,은평구,대조동 224-24번지
109,02-2297-7582,서울특별시 성동구 행당로8길 41-2 (행당동),오렌지동물병원,202932,450419,서울특별시,성동구,행당동 322-100번지
110,2256-7582,서울특별시 중구 동호로 178 (신당동),웰펫동물병원,200945,450227,서울특별시,중구,신당동 373-64번지
111,02-582-2186,서울특별시 서초구 방배로34길 12 (방배동),남서울동물병원,199192,443360,서울특별시,서초구,방배동 809-1
112,582-2357,서울특별시 서초구 효령로57길 4 (서초동),서초동물병원,201437,442585,서울특별시,서초구,서초동 1603-66
113,522-0222,"서울특별시 서초구 반포대로 45, 1층 (서초동, 명성빌딩)",아델 동물병원,200886,442482,서울특별시,서초구,서초동 1534-2번지 명성빌딩
114,581-5500,"서울특별시 서초구 서초대로 124, 101호 (방배동, 선빌딩)",동물제중원금손이 동물병원,199583,442879,서울특별시,서초구,방배동 894-2 선빌딩 101호
115,02-585-0087,"서울특별시 서초구 효령로 214, 삼양빌딩 2층 (서초동)",다니엘동물병원,200612,442326,서울특별시,서초구,서초동 1486-2 삼양빌딩
116,2693-8883,서울특별시 양천구 중앙로 295 (신월동),우신동물병원,186795,446714,서울특별시,양천구,신월동 501-12
117,2642-9159,서울특별시 양천구 등촌로 160 (목동),강현림 종합동물병원,187774,449099,서울특별시,양천구,목동 657-16
118,02-2651-9953,서울특별시 양천구 은행정로 10 (신정동),해성동물병원,187566,446498,서울특별시,양천구,신정동 1020-17
119,02-3476-7522,"서울특별시 서초구 반포대로 287, 래미안퍼스티지 중심상가 1층 147,148호 (반포동)",두리종합동물병원,200006,444681,서울특별시,서초구,반포동 18-3 래미안퍼스티지 중심상가 147-8호
120,25219010,"서울특별시 서초구 방배로 119, 1층 (방배동)",디아나동물병원,199510,442496,서울특별시,서초구,방배동 925-8번지
121,02-533-5505,"서울특별시 서초구 나루터로 37, 신사쇼핑센터 1층 102-2호 (잠원동)",이상록동물병원,201231,445992,서울특별시,서초구,잠원동 50-5 신사쇼핑센터 102-2호
122,2690-5673,서울특별시 양천구 월정로 46 (신월동),햇살동물병원,185992,446855,서울특별시,양천구,신월동 446-4번지
123,02-468-7582,서울특별시 성동구 뚝섬로 395 (성수동2가),제인동물병원,204764,448534,서울특별시,성동구,성수동2가 339-23번지
124,02-359-2020,서울특별시 은평구 통일로 817 (대조동),Dr.윤24시동물병원,193148,457137,서울특별시,은평구,대조동 187-24
125,02-2233-1848,서울특별시 성동구 금호산길 58(금호동2가),한빛동물병원,201658,450120,서울특별시,성동구,금호동2가 485-1
126,02-6085-7750,"서울특별시 성동구 독서당로 289 (금호동4가,지상1층)",아지동물병원,201790,449531,서울특별시,성동구,금호동4가 1108번지 지상1층
127,02-3395-7975,서울특별시 성동구 고산자로 207 (행당동),24시센트럴동물메디컬센터,202907,450712,서울특별시,성동구,행당동 318-36
128,02-2652-1865,서울특별시 양천구 신목로 78 (신정동),리더스 동물병원,188814,446611,서울특별시,양천구,신정동 117-37
129,02-6402-0301,"서울특별시 성동구 매봉길 13, 1층 420호 (옥수동, 래미안옥수리버젠상가)",오석헌동물병원,201154,449189,서울특별시,성동구,옥수동 561번지 래미안옥수리버젠 상가동 420호
130,385-8275,"서울특별시 은평구 진관3로 70 (진관동, 상림마을 821동 101호)",뉴타운동물병원,193103,459987,서울특별시,은평구,진관동 20번지 상림마을 821동 101호
131,02-358-1591,"서울특별시 은평구 연서로29길 24, 지, 2층 (갈현동, 정운빌딩)",도그원 동물의료센터,192667,457481,서울특별시,은평구,"갈현동 431-5번지 지층, 2층"
132,02-387-7582,서울특별시 은평구 은평로 93 (응암동),24시스마트동물메디컬센터,192700,455277,서울특별시,은평구,응암동 91-5
133,593-1045,"서울특별시 서초구 강남대로 631, 1층 (잠원동, 크레신타워)",유림동물안과병원,201566,446206,서울특별시,서초구,잠원동 8-24 크레신타워 1층
134,2094-8344,서울특별시 중랑구 중랑천로 71 (상봉동),서울우유협동조합유우진료소,206322,454382,서울특별시,중랑구,상봉동 137-7
135,2282-3653,서울특별시 성동구 독서당로 328 (금호동4가),펫365동물병원,202165,449517,서울특별시,성동구,금호동4가 1338번지 10통4반 현대ESA아파트 910호
136,2695-1231,서울특별시 양천구 남부순환로 347 (신월동),민병철동물병원,184768,448230,서울특별시,양천구,신월동 50-5번지
137,02-466-2475,서울특별시 성동구 뚝섬로 386 (성수동2가),서울숲동물병원,204635,448540,서울특별시,성동구,성수동2가 333-3번지 1층
138,02-2291-7582,"서울특별시 성동구 독서당로40길 39, 어울림상가 301~304호 (옥수동)",옥수수 동물병원,201538,448895,서울특별시,성동구,옥수동 560 어울림상가 301~4호
139,2645-2727,"서울특별시 양천구 오목로 299, 목동트라팰리스 (목동)",쿨펫이마트 목동점 동물병원,188473,447092,서울특별시,양천구,목동 962 목동트라팰리스
140,02-354-7544,"서울특별시 은평구 연서로 317 (불광동, 동윤빌딩)",둘레길동물병원,193548,457937,서울특별시,은평구,불광동 104-94번지
141,02-352-7275,"서울특별시 은평구 통일로 727-5, 2층 (대조동)",개와냥이동물병원,193681,456433,서울특별시,은평구,대조동 14-27 2층
142,02-3152-0075,서울특별시 은평구 백련산로 29 (응암동),참좋은동물병원,193082,453993,서울특별시,은평구,응암동 244-212번지
143,356-7547,"서울특별시 은평구 연서로 72, 1층 101호 (역촌동)",우신동물병원,192488,455919,서울특별시,은평구,역촌동 22-49번지 101호
144,02-384-0075,서울특별시 은평구 통일로 885 (갈현동),메디펫동물병원,192826,457741,서울특별시,은평구,갈현동 394-27번지
145,2274-8558,서울특별시 중구 퇴계로 226 (필동2가),윤신근박사동물병원,199653,451039,서울특별시,중구,필동2가 53
146,226546183,서울특별시 양천구 목동동로10길 6 (신정동),노아동물병원,188499,446254,서울특별시,양천구,신정동 294-62번지
147,2607-0022,서울특별시 양천구 오목로 45 (신월동),양천종합동물병원,186020,446685,서울특별시,양천구,신월동 444-11
148,306-8575,"서울특별시 은평구 증산로 267, 103호 (증산동)",한수24시동물병원,191720,453282,서울특별시,은평구,증산동 174-6 103호
149,354-0975,서울특별시 은평구 연서로 137 (구산동),로얄동물병원,192585,456539,서울특별시,은평구,구산동 1-1번지
150,596-1175,"서울특별시 서초구 서초대로 325 (서초동,지상1층)",교대동물병원,201437,443641,서울특별시,서초구,서초동 1690-2번지 지상1층
151,2649-0774,서울특별시 양천구 등촌로 16 (목동),필동물종합병원,187921,447697,서울특별시,양천구,목동 805-1
152,02-3476-3535,서울특별시 서초구 사평대로45길 10-25 (반포동),반포자이동물병원,201163,444940,서울특별시,서초구,반포동 20-51 베리스타운102/108호
153,02-574-0511,"서울특별시 서초구 헌릉로8길 10-12, 1층 3호 (신원동, 힐스테이트서초잰트리스)",하나동물병원,204997,439329,서울특별시,서초구,신원동 412-5번지 힐스테이트서초잰트리스 103호
154,2645-7588,"서울특별시 양천구 목동서로 77, 현대월드타워 160호 (목동)",가나종합동물병원,189151,448200,서울특별시,양천구,목동 907번지 현대월드타워 160호
155,2643-0283,"서울특별시 양천구 목동서로 170, 홈플러스목동점 (목동)",닥터펫동물병원,188729,447573,서울특별시,양천구,목동 919-7 홈플러스목동점
156,02-356-9475,"서울특별시 은평구 통일로 796, 상가동 지하2층 128호, 지하1층 228호 (불광동, 북한산 힐스테이트7차)",담은동물병원,193458,457135,서울특별시,은평구,"불광동 643 북한산 힐스테이트7차, 상가동 지하2층 128호, 지하1층 228호"
157,2697-7576,"서울특별시 양천구 오목로 198-1 (신정동,1층)",신정 동물병원,187508,447013,서울특별시,양천구,신정동 987-3 1층
158,2642-8653,"서울특별시 양천구 등촌로 172, 등촌빌딩 A동 102호 (목동)",토론토 동물병원,187789,449205,서울특별시,양천구,목동 657-21번지 등촌빌딩
159,02-466-8215,"서울특별시 성동구 왕십리로 16 (성수동1가, 트리마제)",달링동물병원,203912,448509,서울특별시,성동구,성수동1가 718번지 트리마제
160,02-2232-7975,"서울특별시 중구 퇴계로 447, 1층 131호 (황학동, 황학 아크로타워)",바른동물병원,201866,451543,서울특별시,중구,황학동 2523 황학 아크로타워
161,02-306-0158,"서울특별시 은평구 가좌로 239, 2층 (응암동, 스타이루)",오거리동물병원,192509,454280,서울특별시,은평구,응암동 589-12번지 2층
162,382-7582,서울특별시 은평구 은평로 208 (응암동),LOVE MY PET 동물병원,193814,455416,서울특별시,은평구,응암동 74-14번지
163,577-6125,"서울특별시 서초구 매헌로 16, 지하1층 (양재동, 이마트 양재점)",이리온 양재점,203205,440137,서울특별시,서초구,양재동 215번지 이마트 양재점 지하1층
164,592-0202,"서울특별시 서초구 서초중앙로 224, 129호 (반포동)",꿈꾸는 동물병원,201101,444377,서울특별시,서초구,반포동 1341
165,2058-1882,서울특별시 서초구 바우뫼로 211 (양재동),에이블 동물병원,203616,442082,서울특별시,서초구,양재동 4-14
166,02-468-7975,"서울특별시 성동구 성수일로 33, 1층 (성수동1가, 정인숙보습학원)",포레동물병원,204278,449042,서울특별시,성동구,성수동1가 22-28번지 1층
167,3472-8275,"서울특별시 서초구 사임당로 139, 104호 (서초동)",서이동물병원,202129,443286,서울특별시,서초구,서초동 1332-7
168,02-578-7572,"서울특별시 서초구 바우뫼로7길 8, 201호 (우면동,우면세신상가)",우면동물병원,202175,440964,서울특별시,서초구,우면동 66-2 우면세신상가 201호
169,02-2297-0075,서울특별시 성동구 왕십리로 381 (하왕십리동),왕십리조은동물병원,202393,451365,서울특별시,성동구,하왕십리동 892-4
170,2642-1239,"서울특별시 양천구 목동동로 130, 117, 118호 (신정동, 목동신시가지아파트14단지)",페토브 동물병원,188467,446004,서울특별시,양천구,"신정동 329 목동신시가지아파트14단지 B상가 117,호"
171,02-2601-8875,"서울특별시 양천구 중앙로 237, 1층 (신정동)",24시 서울 탑 동물병원,186990,446177,서울특별시,양천구,신정동 1182-11
172,534-9773,서울특별시 서초구 방배중앙로 149 (방배동),수동물병원,198732,443366,서울특별시,서초구,방배동 790-27번지
173,3473-8274,"서울특별시 서초구 서초대로 108, 2층 (방배동)",내방동물병원,199411,442808,서울특별시,서초구,방배동 898-3
174,02-2282-7501,"서울특별시 성동구 매봉길 50 (옥수동, 이편한세상옥수파크힐스)",스테이동물병원,201158,449563,서울특별시,성동구,옥수동 528번지 이편한세상옥수파크힐스
175,02-537-0075,서울특별시 서초구 서초중앙로 245 (반포동),신반포종합동물병원,200885,444571,서울특별시,서초구,반포동 56-1번지
176,8464597,"서울특별시 양천구 목동중앙북로 73, 덕수프라자 2층 (목동)",두암동물병원,188564,449409,서울특별시,양천구,목동 507-2 덕수프라자
177,534-3475,"서울특별시 서초구 잠원로 24 (반포동,반포자이프라자 133호)",24시예스동물병원,200800,444990,서울특별시,서초구,반포동 20-45 반포자이프라자 133호
178,393-6675,서울특별시 서대문구 통일로 197 (영천동),우리동물병원,196511,452071,서울특별시,서대문구,영천동 299
179,736-5834,서울특별시 서대문구 통일로 375 (홍제동),빛가온동물병원,195452,453470,서울특별시,서대문구,홍제동 90-67
180,02-575-0855,"서울특별시 서초구 논현로 173, 동리빌딩 1층 (양재동)",레스펫동물병원,203580,442527,서울특별시,서초구,양재동 2-43 동리빌딩
181,2644-8878,"서울특별시 양천구 목동서로 100, 상가동 105, 204호 (목동, 목동신시가지아파트3단지)",파리스동물병원,188701,448020,서울특별시,양천구,"목동 903 목동신시가지아파트3단지 상가동 105호, 204호"
182,2694-8275,"서울특별시 양천구 신정이펜2로 22, 203호 (신정동, 신정프라자)",구름동물병원,185126,445644,서울특별시,양천구,신정동 1320-2번지 신정프라자 203호
183,02-2061-5277,서울특별시 양천구 신월로 320 (신정동),밀리언동물병원,187242,446576,서울특별시,양천구,신정동 1028-4번지
184,02-525-3102,"서울특별시 서초구 동작대로 36, 1,2층 (방배동, 대광빌딩)",VIP동물의료센터 서초동작점,198352,441943,서울특별시,서초구,"방배동 442-3 대광빌딩 1,2층"
185,02-588-7511,"서울특별시 서초구 서초중앙로 72, 영빌딩 1층 105호,  층 2층 205호 (서초동)",서초M동물의료센터,201248,442893,서울특별시,서초구,서초동 1624-1 영빌딩
186,02-2282-7503,"서울특별시 성동구 행당로 76, 한진노변상가 1,2층 108호109호203호 (행당동)",이윤세동물병원,202511,450401,서울특별시,성동구,행당동 346번지 한진노변상가 109호
187,02-2281-5200,서울특별시 성동구 왕십리로 282 (행당동),한양동물메디컬센터,203201,450821,서울특별시,성동구,행당동 226-3
188,02-393-7588,"서울특별시 중구 만리재로 175, 지하1층 401-1호 (만리동2가, 서울역센트럴자이)",백슬동물병원,196697,450217,서울특별시,중구,만리동2가 273 서울역센트럴자이
189,2645-1475,"서울특별시 양천구 등촌로 218, 혜인빌딩 (목동)",혜인종합 동물병원,187904,449663,서울특별시,양천구,목동 613-8번지 혜인빌딩
190,02-2643-8204,서울특별시 양천구 중앙로 230 (신정동),다온동물병원,187079,446117,서울특별시,양천구,신정동 1052-3
191,354-0087,"서울특별시 은평구 증산로 413, 동현빌딩 1층 (신사동)",야옹동물병원,192318,454553,서울특별시,은평구,신사동 35-20 동현빌딩
192,537-7412,"서울특별시 서초구 반포대로 287, 래미안퍼스티지 중심상가 1층 143호 (반포동)",신세계 동물병원,200006,444681,서울특별시,서초구,반포동 18-3번지 래미안퍼스티지 중심상가 143호
193,02-387-8275,"서울특별시 은평구 진관2로 67, 202동 B층 01호 (진관동, 은평뉴타운우물골아파트)",서울햇빛동물병원,193271,459139,서울특별시,은평구,진관동 82번지 은평뉴타운우물골아파트 두산위브 202동 B01호
194,02-6052-8275,서울특별시 서초구 서래로 38 (반포동),서래동물병원,199800,444017,서울특별시,서초구,반포동 91-10
195,382-7511,"서울특별시 은평구 진관4로 87, 629동 116호 (진관동, 은평뉴타운상림마을)",한빛동물병원,193651,460623,서울특별시,은평구,진관동 5번지 은평뉴타운상림마을 629동 116호
196,02-523-0275,"서울특별시 서초구 서초대로4길 4, 대진빌딩 1층 (방배동)",심바동물병원,198622,442586,서울특별시,서초구,방배동 951-3 대진빌딩
197,25366469,"서울특별시 서초구 신반포로 257, 뉴타운 지하1층 (잠원동)",해뜨는 동물병원 해질녘책방,201104,445267,서울특별시,서초구,잠원동 58-24 뉴타운
198,2208-0329,"서울특별시 중랑구 망우로 315, 2층 (상봉동)",닥터 아이펫 동물병원,207655,454994,서울특별시,중랑구,상봉동 99-10
199,3421-9075,"서울특별시 중랑구 신내로 201, 2층 (신내동, 홈플러스)",도그플러스 동물병원,208209,457055,서울특별시,중랑구,신내동 645번지 홈플러스 2층
200,02-433-3387,"서울특별시 중랑구 봉화산로 232, B동 1층 (신내동)",행복이 있는 동물병원,208614,456170,서울특별시,중랑구,신내동 405-5번지
201,02-494-7775,"서울특별시 중랑구 용마산로 434 (면목동, 청파빌딩)",보담동물병원,208533,454187,서울특별시,중랑구,면목동 17-31번지
202,222810049,"서울특별시 성동구 금호로 105, 비201호 (금호동2가, 래미안하이리버 상가동)",금호동물병원,202099,449892,서울특별시,성동구,금호동2가 1217번지 래미안하이리버 상가동 비201호
203,2643-7579,"서울특별시 양천구 공항대로 552 (목동, 대우마이빌 102호)",오라고동물병원,188169,449702,서울특별시,양천구,목동 603-2번지 대우마이빌 102호
204,6348-1982,"서울특별시 양천구 목동중앙서로 42, 1층 (목동)",팜랜드동물병원,188306,447852,서울특별시,양천구,목동 799-1번지 1층
205,2651-1855,"서울특별시 양천구 목동중앙본로 100, 101호 (목동)",대현동물병원,188521,449143,서울특별시,양천구,목동 531-13 101호
206,6959-8448,"서울특별시 양천구 남부순환로 421, 1층 (신월동)",서서울호수동물병원,185118,447574,서울특별시,양천구,신월동 130-5번지 1층
207,02-2297-7570,"서울특별시 성동구 독서당로 270, 상가동 2층 206호 (금호동4가, 금호동 대우아파트)",바른동물병원,201670,449301,서울특별시,성동구,금호동4가 800번지 금호동대우아파트 상가동 206호
208,02-2291-8275,서울특별시 성동구 마장로 296 (마장동),기린동물병원,203710,451491,서울특별시,성동구,마장동 791-9번지
209,02-595-8875,"서울특별시 서초구 방배로 269, 109호 (방배동)",한나동물병원,198846,443826,서울특별시,서초구,방배동 758-2번지
210,02-574-7582,서울특별시 서초구 태봉로2길 30 (우면동),서초힐스동물병원,202274,439921,서울특별시,서초구,우면동 737 6단지상가 104호
211,388-3008,서울특별시 은평구 은평로 29 (신사동),늘푸른동물병원,192072,455109,서울특별시,은평구,신사동 20-24번지
212,597-7522,"서울특별시 서초구 방배로 76, 머리재빌딩 1층 105호 (방배동)",프렌즈동물병원,199783,442112,서울특별시,서초구,방배동 984-1 머리재빌딩 105호
213,02-3473-0911,"서울특별시 서초구 효령로 95, 우성빌딩 1층 (방배동)",반려동물 의료센터 다울,199453,442064,서울특별시,서초구,방배동 915-10 우성빌딩
214,02-586-7501,서울특별시 서초구 효령로 384 (서초동),메디펫 동물병원,202224,442820,서울특별시,서초구,서초동 1343-1
215,02-2135-9119,"서울특별시 서초구 신반포로 162 (반포동, 르본시티 2층)",헬릭스동물메디컬센터,200115,444741,서울특별시,서초구,반포동 19-1 르본시티 2층
216,02-521-8181,"서울특별시 서초구 반포대로 89, 1층 (서초동, 유민빌딩)",에이원동물병원,200735,442882,서울특별시,서초구,서초동 1538-9 유민빌딩 1층
217,354-4110,서울특별시 은평구 통일로 697 (녹번동),녹번동물병원,193903,456198,서울특별시,은평구,녹번동 117-112번지
218,2692-8255,서울특별시 양천구 신월로 149 (신월동),파란종합 동물병원,185810,446161,서울특별시,양천구,신월동 546-25
219,358-7566,"서울특별시 은평구 서오릉로 80(대조동, 북한산 포레스트)",새은평동물의료센터,193060,456143,서울특별시,은평구,대조동 179-16 북한산 포레스트
220,02-577-7475,서울특별시 서초구 마방로6길 18 (양재동),사랑의동물병원,203660,441406,서울특별시,서초구,양재동 257-2
221,02-577-3690,서울특별시 서초구 동산로 66 (양재동),한 동물병원,203998,441078,서울특별시,서초구,양재동 377-4
222,02-2299-3283,서울특별시 성동구 독서당로 200 (옥수동),함께하는동물병원,201090,448973,서울특별시,성동구,옥수동 263-1번지
223,02-3444-7509,서울특별시 서초구 강남대로 525-3 (반포동),라파엘동물병원,201866,445173,서울특별시,서초구,반포동 722-29
224,2606-1990,서울특별시 양천구 지양로 52 (신월동),일오삼동물병원,185337,446489,서울특별시,양천구,신월동 972-6
225,2655-2258,서울특별시 양천구 공항대로 636 (목동),행복한동물병원,188919,449389,서울특별시,양천구,목동 515-1
226,2644-0069,서울특별시 양천구 목동로 181 (신정동),상아동물병원,187944,446945,서울특별시,양천구,신정동 995-4번지
227,2648-8275,서울특별시 양천구 목동서로 57 (목동),목동 동물병원,189311,448276,서울특별시,양천구,목동 907-10번지
228,02-6215-3416,"서울특별시 중랑구 동일로 640, 지하 2층 (면목동)",로얄동물암치료센터,207018,453915,서울특별시,중랑구,면목동 146-75
229,02-2233-6675,"서울특별시 중구 다산로36길 83, 1층 (신당동)",신당 좋아요 동물병원,201619,450917,서울특별시,중구,신당동 44-17
230,02-2281-8122,서울특별시 성동구 무학로 16 (홍익동),라임동물병원,202609,451473,서울특별시,성동구,홍익동 398-2번지
231,973-1953,"서울특별시 중랑구 동일로 920, 3층 (묵동)",태능동물병원,206780,456698,서울특별시,중랑구,묵동 175-2 3층
232,439-8300,"서울특별시 중랑구 면목로 341, 혜원동물병원 (면목동)",혜원동물병원,207729,453342,서울특별시,중랑구,면목동 497-7번지 혜원동물병원
233,434-5465,서울특별시 중랑구 면목로 269 (면목동),보람동물병원,207505,452751,서울특별시,중랑구,면목동 353-4번지
234,435-0166,서울특별시 중랑구 겸재로 187 (면목동),엔젤동물병원,207735,454058,서울특별시,중랑구,면목동 102-51번지
235,974-0339,"서울특별시 중랑구 동일로 899, 1층 (묵동)",홍상희동물병원,206764,456484,서울특별시,중랑구,묵동 239-76
236,435-2275,"서울특별시 중랑구 면목로 442-1, 1층 (면목동)",하스펫탈동물병원,207610,454366,서울특별시,중랑구,면목동 225-7
237,2651-8575,서울특별시 양천구 목동중앙북로 37 (목동),미니주동물병원,188251,449541,서울특별시,양천구,목동 601-6
238,3422-0001,"서울특별시 중랑구 봉화산로 103, 1층 (중화동, 삼일시티빌)",신내동물병원,207500,455602,서울특별시,중랑구,중화동 11-36번지 삼일시티빌 1층
239,2207-0073,"서울특별시 중랑구 봉화산로 39-1, 유정빌딩 2층 (중화동)",진정훈동물병원,206886,455497,서울특별시,중랑구,중화동 305-44 유정빌딩
240,493-7582,서울특별시 중랑구 면목로 311 (면목동),성지동물병원,207684,453072,서울특별시,중랑구,면목동 634-5
241,492-7582,"서울특별시 중랑구 용마산로 532, 금란동물병원 (망우동)",금란동물병원,208814,455130,서울특별시,중랑구,망우동 364-27 금란동물병원
242,2208-7533,"서울특별시 중랑구 동일로 640, 지하 1층, 4층  (면목동)",로얄동물외과수술센터,207018,453915,서울특별시,중랑구,면목동 146-75
243,332-2883,서울특별시 서대문구 연희로25길 101 (연희동),연희동물병원,193930,451877,서울특별시,서대문구,연희동 89-9번지
244,535-7579,"서울특별시 서초구 잠원로 221, 상가동 2층 (잠원동, 한강아파트)",리즈동물병원,201268,446565,서울특별시,서초구,잠원동 49-8번지
245,02-3395-0075,"서울특별시 성동구 행당로 76, 110호 (행당동, 한진노변상가)",평생피부과동물병원,202511,450401,서울특별시,성동구,행당동 346 한진노변상가 110호
246,2062-1110,"서울특별시 양천구 목동중앙로 43 (목동,106호)",리즈동물병원,188395,447929,서울특별시,양천구,목동 773-3 106호
247,2643-7882,서울특별시 양천구 목동남로4길 6-11 (신정동),참사랑동물병원,188003,445120,서울특별시,양천구,신정동 337-7
248,384-7743,서울특별시 은평구 연서로 185 (갈현동),금쪽같은내새끼 동물병원,192675,457006,서울특별시,은평구,갈현동 462-25번지
249,355-7931,서울특별시 은평구 갈현로 35 (신사동),한마음동물병원,191993,455412,서울특별시,은평구,신사동 9-34번지
250,02-6953-8275,"서울특별시 은평구 진관2로 77, 205동 지하1층 B104호 (진관동, 은평뉴타운우물골)",우리덕구동물병원,193537,459137,서울특별시,은평구,진관동 83번지 은평뉴타운우물골 205동 B104호
251,02-373-5555,"서울특별시 은평구 증산로9길 26-23, 지하1층 (증산동)",가든펫동물병원,191854,453852,서울특별시,은평구,증산동 202-27번지 지하1층
252,387-6920,서울특별시 은평구 응암로 261 (응암동),응암동물병원,192719,454775,서울특별시,은평구,응암동 119-17번지
253,357-8538,서울특별시 은평구 통일로 879 (갈현동),김정복동물병원,192830,457674,서울특별시,은평구,갈현동 394-19번지
254,356-1656,서울특별시 은평구 불광로 37 (불광동),불광동물병원,193731,456557,서울특별시,은평구,불광동 274-10번지
255,304-5553,서울특별시 은평구 응암로 226 (응암동),한얼동물병원,192681,454418,서울특별시,은평구,응암동 576-25번지
256,02-835-7572,서울특별시 영등포구 신길로 70 (신길동),신풍동물종합병원,191845,444053,서울특별시,영등포구,신길동 3611번지
257,833-0309,서울특별시 영등포구 여의대방로35길 1(신길동),대방동물병원,192894,444361,서울특별시,영등포구,신길동 628
258,2207-9931,서울특별시 중랑구 면목로 273 (면목동),주연동물병원,207501,452781,서울특별시,중랑구,면목동 353-25번지
259,432-7530,서울특별시 중랑구 신내로10길 7 (신내동),진서동물병원,208401,455823,서울특별시,중랑구,신내동 571-8번지
260,436-7311,서울특별시 중랑구 망우로 415(망우동),세진동물병원,208613,455266,서울특별시,중랑구,망우동 488-14
261,492-9303,"서울특별시 중랑구 겸재로 207, 1층 (면목동)",숲속동물병원,207929,454115,서울특별시,중랑구,면목동 103-4 1층
262,02-365-7582,"서울특별시 서대문구 신촌로35길 10, 지하1층 424호 (북아현동, e편한세상신촌 4단지)",마음을 나누는 동물병원,196030,450666,서울특별시,서대문구,북아현동 136-21 e편한세상신촌 4단지
263,3217-1081,서울특별시 서대문구 통일로 489 (홍은동),신영동물병원,194714,454374,서울특별시,서대문구,홍은동 217-30번지 나호
264,437-7579,서울특별시 중랑구 사가정로 363 (면목동),면목동물병원,207430,453216,서울특별시,중랑구,면목동 606-6번지
265,234220977,"서울특별시 중랑구 신내로 225, 디아뜨갤러리 142호 (신내동)",하니동물병원,207990,457184,서울특별시,중랑구,신내동 648번지 디아뜨갤러리
266,2208-6788,"서울특별시 중랑구 겸재로 165, 1,2층 (면목동)",한국동물메디컬센터(KAMC),207517,453991,서울특별시,중랑구,"면목동 119-10 1,2층"
267,02-333-8632,서울특별시 서대문구 연희로 132 (연희동),라파엘종합동물병원,194016,451883,서울특별시,서대문구,연희동 88-20번지
268,309-8275,"서울특별시 서대문구 거북골로 120, 상가 205동 (남가좌동, DMC센트레빌)",프란다스동물병원,192480,452635,서울특별시,서대문구,남가좌동 381 DMC센트레빌 상가 205동
269,02-2088-7775,서울특별시 송파구 오금로 147 (방이동),샤인동물메디컬센터,209788,445412,서울특별시,송파구,방이동 108-7
270,955-8400,서울특별시 도봉구 도봉로 875 (도봉동),도담동물병원,203948,464475,서울특별시,도봉구,도봉동 562-26
271,043-240-7654,"충청북도 청주시 청원구 오창읍 중부로 1555, 1층",오성동물병원,243880,362716,충청북도,청주시,청원구 오창읍 화산리(華山) 278-8
272,062-971-7511,"광주광역시 광산구 월계로 203, 123호 (월계동)",비타민동물병원,186070,190524,광주광역시,광산구,월계동 893-9번지
273,054-781-7782,"경상북도 울진군 울진읍 울진중앙로 39, 킴스동물병원",킴스동물병원,413380,389810,경상북도,울진군,울진읍 읍내리 219-6 킴스동물병원
274,031-781-7582,"경기도 성남시 분당구 판교역로14번길 20, (주)코레드디엔씨 2층 201호 (백현동)",365동판교동물병원,209799,431494,경기도,성남시,분당구 백현동 564-5번지 (주)코레드디엔씨 201호
275,02-2643-2777,"서울특별시 양천구 등촌로 114, 목동한강팰리스 1층 (목동)",가온동물병원,187917,448665,서울특별시,양천구,목동 721-1번지 목동한강팰리스
276,435-3336,"경상북도 김천시 혁신3로 5, 율곡스퀘어Ⅲ 1층 110호 (율곡동)",율곡동물병원,306462,291475,경상북도,김천시,율곡동 780번지 율곡스퀘어Ⅲ
277,062-416-7975,"광주광역시 북구 대자로 36, MVG#78 304,305,306호 (운암동)",24시 블루밍 동물병원,188635,186022,광주광역시,북구,운암동 439-1 MVG#78
278,02-941-7900,"서울특별시 강북구 월계로 3, 덕신빌딩 4층 (미아동)",24시루시드동물메디컬센터,202635,456360,서울특별시,강북구,미아동 42-11 덕신빌딩 4층
279,062-716-4282,광주광역시 남구 서문대로 665 (진월동),은하수 동물병원,190672,180041,광주광역시,남구,진월동 264-3
280,031-8011-3690,"경기도 이천시 중리천로 135, 미래캐슬2동 (중리동)",24시큰사랑동물병원,239811,419357,경기도,이천시,중리동 468-24
281,054-277-5809,경상북도 포항시 남구 형산강북로 99 (효자동),관문동물병원,410708,280804,경상북도,포항시,남구 효자동 594-4번지
282,322017575,"경기도 부천시 부흥로303번길 62, 그린프라자 (중동)",24시 웰니스 동물 의료센터,180118,443928,경기도,부천시,중동 1128 그린프라자
283,02-455-5975,"서울특별시 광진구 자양로 48, 104호 (자양동)",아이본 동물병원,207510,447795,서울특별시,광진구,자양동 681
284,031-948-6669,"경기도 파주시 심학산로423번길 7-33, 준프라자 2층 201호 (목동동)",산내동물병원,176763,468587,경기도,파주시,목동동 1136-3
285,02-566-5852,"서울특별시 강남구 역삼로 138, 동광빌딩 1층 (역삼동)",하나카동물병원,203000,443559,서울특별시,강남구,역삼동 834-45번지 동광빌딩 1층
286,053-631-7975,"대구광역시 달서구 조암로 48, 원더풀스파랜드 203호 (월성동)",돌봄동물메디컬클리닉,337665,259315,대구광역시,달서구,월성동 1540-2번지 원더풀스파랜드 203호
287,062)571-1275,"광주광역시 북구 첨단연신로91번길 30, 106, 107호 (신용동)",마음동물병원,187290,189708,광주광역시,북구,신용동 710번지
288,02-549-9773,"서울특별시 강남구 압구정로 151, 상가 1동 201호 (압구정동, 현대아파트)",튼튼동물병원,202094,447109,서울특별시,강남구,압구정동 426번지 현대아파트 상가 1동 201호
289,053-637-5287,대구광역시 달서구 갈밭로4길 20 (대곡동),수목원동물병원,338276,256963,대구광역시,달서구,대곡동 1071-2번지
290,2517975,"전라북도 전주시 덕진구 세병로 41, B104호 (송천동2가, 에코시티 데시앙 4블럭)",에코동물병원,211706,263756,전라북도,전주시,덕진구 송천동2가 1311 에코시티 데시앙 4블럭
291,063-581-7582,전라북도 부안군 부안읍 번영로 82-1,닥터 홍 동물병원,175443,247415,전라북도,부안군,부안읍 서외리 432-21번지
292,055-331-7575,"경상남도 김해시 해반천로130번길 39, 코아루센텀 오피스텔 2층 (삼계동)",다봄 동물의료센터,370251,197279,경상남도,김해시,삼계동 1505-4번지 코아루센텀 오피스텔
293,062-251-7582,"광주광역시 북구 설죽로 298, 1,2층 (오치동)",동행동물병원,190690,187448,광주광역시,북구,오치동 785-6
294,031-766-3463,"경기도 광주시 태전동로 25, 퍼스트타워 1층 104호 (태전동)",하하동물병원,220693,431657,경기도,광주시,태전동 162-5번지
295,031-715-3575,"경기도 성남시 분당구 내정로 58, 스포라이프 스포츠센타 107호 (정자동)",분당데이지동물병원,210135,429265,경기도,성남시,분당구 정자동 117-1번지 스포라이프 스포츠센타 107호
296,02-426-7722,"서울특별시 강동구 아리수로 421, MIDC빌딩 101호 (강일동)",아프리카동물병원,215311,451386,서울특별시,강동구,강일동 679-2번지 MIDC빌딩
297,032-777-0975,"인천광역시 연수구 신송로 165-19, 2층 201,202호 (송도동)",라파엘 동물병원,168684,432784,인천광역시,연수구,송도동 21-24
298,431-7580,"인천광역시 남동구 논고개로 80, 202호 (논현동)",해와달동물병원,175718,433046,인천광역시,남동구,논현동 733-5번지
299,031-863-8370,경기도 양주시 남면 감악산로244번길 33,캐나다동물병원,198082,487333,경기도,양주시,남면 신산리 72-10
300,031-791-8275,"경기도 하남시 미사강변대로54번길 125, 상아프라자2 2층 201호 (풍산동)",미사 센트럴 동물병원,216583,450640,경기도,하남시,"풍산동 502-1 상아프라자2, 2층 201호"
301,421-7582,"대구광역시 중구 남산로6안길 47, 1층 101, 105호 (남산동, 로하스남산)",남산연합동물병원,343206,263019,대구광역시,중구,남산동 2118-2 로하스남산 101호
302,262170202,"서울특별시 동대문구 전농로 57-1, 1층,2층,지하1층 동대문 루시드 동물메디컬센터 (답십리동)",동대문 루시드 동물메디컬센터,204959,451984,서울특별시,동대문구,답십리동 259-22
303,062-945-1275,"광주광역시 광산구 풍영로 189, 1층 (장덕동)",치유동물병원,182976,187702,광주광역시,광산구,장덕동 1597
304,051-526-7588,"부산광역시 동래구 명장로 58, 1층 (명장동)",포레동물병원,391830,191510,부산광역시,동래구,명장동 145-6
305,041-338-7541,"충청남도 예산군 삽교읍 신촌길 11-12, 지상동 1층",소정동물병원,170788,352895,충청남도,예산군,삽교읍 신리 316-46
306,267-7582,"충청북도 청주시 서원구 복대로 40, 2층 (개신동)",한샘동물병원,239760,346718,충청북도,청주시,서원구 개신동 623
307,055-921-5959,"경상남도 진주시 개양로 112, 신진주역세권 줌테라스 1층 103호 (가좌동)",해뜨는 동물병원,301821,184498,경상남도,진주시,가좌동 2068-1 신진주역세권 줌테라스
308,041-585-7575,"충청남도 천안시 서북구 직산읍 봉주로 17, 삼은리 빌딩 1층 102호",늘봄 동물병원,213167,375077,충청남도,천안시,서북구 직산읍 삼은리 76-118
309,426362947,대전광역시 동구 한밭대로 1249 (용전동),동물진료법인피케이동물병원,239077,317387,대전광역시,동구,용전동 13-5
310,054-873-1195,경상북도 청송군 진보면 진보로 264,청송영양축협 동물병원,384382,338739,경상북도,청송군,진보면 각산리 226
311,053-639-6366,대구광역시 달서구 월곡로 249 (상인동),가람동물병원,339051,258493,대구광역시,달서구,상인동 240-9번지
312,053-652-7582,대구광역시 달서구 월배로39길 4-1 (상인동),제이엘동물병원,338601,258682,대구광역시,달서구,상인동 188-4번지
313,053-653-5549,대구광역시 달서구 달구벌대로 1736 (두류동),광장동물병원,340409,262955,대구광역시,달서구,두류동 487-25번지
314,053-562-1132,대구광역시 달서구 달구벌대로 1658 (감삼동),용산종합동물병원,339717,262614,대구광역시,달서구,감삼동 105-1
315,053-584-2757,대구광역시 달서구 달구벌대로 1220 (이곡동),온누리동물병원,335506,262291,대구광역시,달서구,이곡동 541-9번지
316,"582-3363,562-1729",대구광역시 달서구 달구벌대로 1328 (이곡동),문종합동물병원,336561,262207,대구광역시,달서구,이곡동 1000-125번지
317,053-652-0815,"대구광역시 달서구 구마로 218, 2층 (송현동)",세림종합동물병원,340113,260738,대구광역시,달서구,송현동 56-1번지 나동 2층
318,581-7535,대구광역시 달서구 달구벌대로 1223 (이곡동),미르동물병원,335541,262361,대구광역시,달서구,이곡동 538-3
319,959-3959,대구광역시 동구 아양로 227 (신암동),박동물병원,347835,266406,대구광역시,동구,신암동 1476번지
320,965-7975,"대구광역시 동구 안심로 389-2 (신서동, 이마트 2층)",쿨펫동물병원,355939,264777,대구광역시,동구,신서동 520-1번지 이마트 2층
321,536072754,"대구광역시 동구 안심로 80 (율하동,롯데마트 4층 동물병원)",쿨펫동물병원,352869,264481,대구광역시,동구,율하동 1117 롯데마트 4층 동물병원
322,053-963-0775,"대구광역시 동구 안심로 389, 1층 (신서동)",앨리스동물병원,355866,264626,대구광역시,동구,신서동 713 1층
323,053-585-1119,대구광역시 달서구 이곡공원로 36 (이곡동),성서종합동물병원,336450,262696,대구광역시,달서구,이곡동 1248-5
324,053-641-1050,대구광역시 달서구 조암로 42 (월성동),오 동물병원,337759,259354,대구광역시,달서구,월성동 1832번지
325,622-7585,대구광역시 달서구 성당로 21 (성당동),두류동물병원,340739,261033,대구광역시,달서구,성당동 211-3번지
326,744-5757,대구광역시 동구 화랑로 413 (방촌동),킴스동물병원,350675,265368,대구광역시,동구,방촌동 1118-120번지
327,983-2069,대구광역시 동구 동촌로 154 (검사동),변수의과의원,349614,266132,대구광역시,동구,검사동 957-41번지
328,959-0121,대구광역시 동구 아양로 216 (효목동),21세기종합동물병원,347722,266319,대구광역시,동구,효목동 64-6번지
329,942-0805,"대구광역시 동구 신암로 70, 2층 (신암동)",동대구동물의료센터,345154,265348,대구광역시,동구,신암동 1293-3
330,782-0210,대구광역시 동구 동대구로 425 (신천동),대경동물병원,346772,264356,대구광역시,동구,신천동 137-4번지
331,944-8575,대구광역시 동구 화랑로 429 (방촌동),이끌림동물병원,350843,265334,대구광역시,동구,방촌동 1118-109
332,426-7011,"대구광역시 동구 동부로 34, 2층 (신천동)",대구동물병원,345910,264967,대구광역시,동구,신천동 538-22번지
333,964-7588,"대구광역시 동구 율하서로 54, 101,102호 (율하동)",율하동물병원,352654,264066,대구광역시,동구,율하동 1292번지
334,053-526-8234,"대구광역시 달서구 구마로 136, 1층 (본동)",박물관옆동물병원,339291,260744,대구광역시,달서구,본동 821-1번지
335,053-651-1101,"대구광역시 달서구 월배로 330-1, 1층 (송현동)",25시종합동물병원,339718,259406,대구광역시,달서구,송현동 798-244 1층
336,592-5930,대구광역시 달서구 선원로 262 (용산동),헬로우동물병원,337346,263104,대구광역시,달서구,용산동 499-1번지
337,638-8275,대구광역시 달서구 월배로 182 (상인동),어진종합동물병원,338562,258560,대구광역시,달서구,상인동 255-2번지
338,952-7227,대구광역시 동구 아양로 17 (신암동),열린동물병원,345860,265810,대구광역시,동구,신암동 799-1번지
339,053-962-3264,대구광역시 동구 경안로 826 (각산동),봄이온동물병원,354734,265350,대구광역시,동구,각산동 444-7번지
340,782-7355,대구광역시 수성구 지범로 69 (지산동),이수의과동물병원,347108,259757,대구광역시,수성구,지산동 1157-22번지
341,752-7535,"대구광역시 수성구 명덕로 421, 4호 (수성동2가)",허동물병원,345939,262813,대구광역시,수성구,수성동2가 60-1번지 4호
342,763-8855,대구광역시 수성구 수성로 151 (중동),수성동물병원,345568,261086,대구광역시,수성구,중동 400-10번지
343,053-638-1558,대구광역시 달서구 월배로 79 (진천동),초록동물병원,337588,258174,대구광역시,달서구,진천동 595-26
344,764-7582,대구광역시 수성구 수성로 85 (상동),올펫 동물병원,345516,260439,대구광역시,수성구,상동 279-2
345,792-0788,대구광역시 수성구 달구벌대로 3258 (신매동),다원 동물병원,354632,261120,대구광역시,수성구,신매동 183
346,755-8355,대구광역시 수성구 국채보상로 1006 (만촌동),메트로 동물병원,348081,264089,대구광역시,수성구,만촌동 950-1번지
347,053-639-0788,대구광역시 달서구 월배로 93 (진천동),위드동물병원,337744,258214,대구광역시,달서구,진천동 576-1번지
348,053-721-7585,대구광역시 달서구 월배로 48 (진천동),두남자동물병원,337310,258056,대구광역시,달서구,진천동 657-1
349,053-631-5575,대구광역시 달서구 조암남로 9 (상인동),하나동물병원,338361,259103,대구광역시,달서구,상인동 1595-3
350,053-636-8272,대구광역시 달서구 한실로 99 (도원동),이룸동물병원,338920,257407,대구광역시,달서구,도원동 1436-9번지
351,053-633-1175,"대구광역시 달서구 진천로 78, 2층 (진천동)",애플동물병원,337643,258327,대구광역시,달서구,진천동 574-1번지
352,053-557-7582,대구광역시 달서구 장기로 207 (본리동),라파동물병원,338848,261439,대구광역시,달서구,본리동 62-6번지
353,053-563-7585,"대구광역시 달서구 달구벌대로 1580, VIP빌딩 1,2,3층 (감삼동)",(주)죽전동물메디컬센터,339032,262260,대구광역시,달서구,감삼동 140-32
354,053-565-7175,대구광역시 달서구 와룡로 156 (감삼동),미소동물병원,338834,261794,대구광역시,달서구,감삼동 171-4번지
355,053-631-9966,대구광역시 달서구 비슬로 2746 (대곡동),24시프라임동물병원,336899,257736,대구광역시,달서구,대곡동 964번지
356,536310209,대구광역시 달서구 비슬로 2692 (대곡동),이솝동물병원,336427,257483,대구광역시,달서구,대곡동 7-6
357,053-638-7585,"대구광역시 달서구 조암로 4, 105호 (월성동, 그루메디컬)",앨리스in동물병원,338114,259533,대구광역시,달서구,월성동 1811 그루메디컬 105호
358,053-567-8275,대구광역시 달서구 용산로 52 (장기동),본리종합동물병원,338238,261308,대구광역시,달서구,장기동 566-4번지
359,053-634-7582,대구광역시 달서구 월배로 165 (진천동),본 동물메디컬센터 외과동물병원,338386,258530,대구광역시,달서구,진천동 44-4
360,053-633-8811,"대구광역시 달서구 월배로 80, 401동 1층 127호 (진천동, 진천역 대성스카이렉스 상가)",해맑은동물병원,337646,258085,대구광역시,달서구,진천동 508번지 진천역 대성스키이렉스 상가1층 401동 127호
361,053-555-7585,대구광역시 달서구 두류공원로 267 (두류동),한마음종합동물병원,340628,262981,대구광역시,달서구,두류동 472-11
362,053-637-7501,"대구광역시 달서구 월배로 166, 1, 2, 5층 (상인동)",탑스동물메디컬센터,338404,258466,대구광역시,달서구,상인동 1439-1
363,053-581-7582,대구광역시 달서구 이곡공원로 19 (이곡동),이곡종합동물병원,336290,262746,대구광역시,달서구,이곡동 1238-6번지
364,053-291-3336,대구광역시 북구 침산로 116 (침산동),아프리카 동물병원,343653,266304,대구광역시,북구,침산동 241-1
365,053-941-0553,대구광역시 북구 대현로 27 (대현동),북부동물병원,344723,266253,대구광역시,북구,대현동 229-19
366,053-475-00799,대구광역시 북구 공항로 12 (복현동),준 동물병원,345891,267577,대구광역시,북구,복현동 209-1
367,341-1155,"대구광역시 북구 침산로 153, 101동 1층 A1호 (침산동, 명성푸르지오)",라라(Lara) 동물병원,343539,266595,대구광역시,북구,침산동 269-10 명성푸르지오 101동 A1호
368,053-357-7588,대구광역시 북구 칠곡중앙대로 373 (태전동),태전동물병원,339580,270979,대구광역시,북구,태전동 1068
369,053-312-7553,"대구광역시 북구 학정로 440, 101호 (구암동, 동재빌딩)",키다리동물병원,341072,272624,대구광역시,북구,구암동 765-2 동재빌딩 101호
370,053-383-0075,"대구광역시 북구 동북로 131, 105동 108,9호 (산격동, 양우내안에아파트 상가)",올리브동물병원,345111,268011,대구광역시,북구,산격동 1838
371,053-352-8277,대구광역시 북구 침산남로 61 (노원동1가),대구24시동물병원,342836,266639,대구광역시,북구,노원동1가 1-8
372,053-958-0075,대구광역시 북구 서변로 65-1 (서변동),가온동물병원,344021,270198,대구광역시,북구,서변동 1746-9
373,352-5630,대구광역시 북구 팔달로41길 12 (노원동2가),경북가축병원,341995,266487,대구광역시,북구,노원동2가 290-3
374,053-311-8275,"대구광역시 북구 칠곡중앙대로 301, 102호 (태전동)",칠곡종합동물병원,339514,270241,대구광역시,북구,태전동 415-1 102호
375,054-432-2292,경상북도 김천시 양금로 249 (황금동),가람가축병원,301117,291238,경상북도,김천시,황금동 17-12번지
376,054-434-6961,경상북도 김천시 자산로 104 (성내동),두산동물병원,300835,291708,경상북도,김천시,성내동 181-6번지
377,054-434-6455,경상북도 김천시 김천로 65 (평화동),삼양가축병원,299881,292315,경상북도,김천시,평화동 245-12번지
378,054-439-0118,경상북도 김천시 구름다리2길 33 (평화동),우정 팜 크리닉,300533,292288,경상북도,김천시,평화동
379,054-430-8275,경상북도 김천시 김천로 188 (남산동),가야동물병원,300848,291565,경상북도,김천시,남산동 12-3번지
380,054-435-8575,경상북도 김천시 부곡맛고을1길 87 (부곡동),지수동물병원,298375,292074,경상북도,김천시,부곡동 1504
381,054-435-7533,경상북도 김천시 양금로 231-1 (황금동),녹십자동물병원,301100,291071,경상북도,김천시,황금동 102-1번지
382,054-433-3130,경상북도 김천시 공단1길 164 (대광동),금오산낙농축협동물병원,302246,294871,경상북도,김천시,대광동 1088번지
383,054-433-7582,경상북도 김천시 자산로 184 (성내동),미래동물병원,300596,292365,경상북도,김천시,성내동 10-23번지
384,054-436-7577,"경상북도 김천시 시청로 95, 휴먼시아A동 상가2층 (신음동, 대신휴먼시아)",김천연합동물병원,300374,293506,경상북도,김천시,신음동 1313번지 대신휴먼시아
385,853-8008,경상북도 안동시 제비원로 118 (옥야동),서울종합동물병원,354002,341562,경상북도,안동시,옥야동 340-49번지
386,841-0025,"경상북도 안동시 제비원로 113-16, 333동 120호 (당북동)",보경종합동물병원,353940,341550,경상북도,안동시,당북동 333-120번지
387,852-7582,경상북도 안동시 옥동1길 2 (옥동),안동제1 동물병원,352071,341053,경상북도,안동시,옥동 796-1번지
388,054-858-2233,"경상북도 안동시 옥서1길 70, 104동 703호 (옥동, 호반 베르디움)",대구가축병원,351528,341468,경상북도,안동시,옥동 920-4번지 104동 703호
389,054-853-6676,경상북도 안동시 제비원로 135 (당북동),연합가축병원,353947,341726,경상북도,안동시,당북동 311-7번지
390,054-853-6675,경상북도 안동시 제비원로 109 (당북동),황동물병원,353952,341478,경상북도,안동시,당북동 333-93번지
391,855-7100,경상북도 안동시 제비원로 289-1 (안기동),보우종합동물병원,353637,343173,경상북도,안동시,안기동 235-17번지
392,858-8530,"경상북도 안동시 제비원로 152, 안동봉화축협 (광석동)",안동봉화축협동물병원,354009,341898,경상북도,안동시,광석동 20-4번지 안동봉화축협
393,054-858-8575,경상북도 안동시 경북대로 555 (송현동),영민동물병원,351879,343233,경상북도,안동시,송현동 419-1번지
394,054-858-7553,경상북도 안동시 퇴계로 127 (명륜동),신세계동물병원,354883,342247,경상북도,안동시,명륜동 328-4번지
395,032-815-7582,"인천광역시 연수구 센트럴로 194, C동 128호 (송도동, 더샵센트럴파크2차상가)",Central 동물병원,168142,432552,인천광역시,연수구,송도동 23-4번지 더샵센트럴파크2차상가 C동 128호
396,564-2214,전라북도 고창군 고창읍 성산5길 9,연합,172689,215203,전라북도,고창군,고창읍 읍내리 212-19번지
397,564-8987,전라북도 고창군 대산면 사거1길 77,대산,163153,204751,전라북도,고창군,대산면 매산리 244-19
398,564-1629,전라북도 고창군 고창읍 중앙로 321,한국,173660,215095,전라북도,고창군,고창읍 교촌리 501번지
399,563-4245,전라북도 고창군 고창읍 고인돌대로 1775,고창중앙 동물병원,171979,215476,전라북도,고창군,고창읍 읍내리 964-1번지
400,561-0561,전라북도 고창군 고창읍 동리로 137,고창,173349,214845,전라북도,고창군,고창읍 읍내리 169번지
401,561-2480,전라북도 고창군 흥덕면 부안로 423,고창부안축협동물병원,172348,228603,전라북도,고창군,흥덕면 신덕리 35-6번지
402,063-562-9154,전라북도 고창군 고창읍 성산8길 39-10,더나은동물병원,172644,215423,전라북도,고창군,고창읍 교촌리 233-11번지
403,063-261-3125,전라북도 완주군 봉동읍 봉동로 133,박동물병원,215099,270757,전라북도,완주군,봉동읍 장기리 225번지
404,063-229-6649,전라북도 완주군 이서면 콩쥐팥쥐로 1047,광희동물병원,201236,257862,전라북도,완주군,이서면 이문리 711-3번지
405,063-228-7221,전라북도 완주군 이서면 이서로 42,이서동물병원,201860,257750,전라북도,완주군,이서면 상개리 590
406,904-2345,"경기도 고양시 일산서구 중앙로 1443, 가람상가 208호 (주엽동)",반딧불 동물병원,178734,463140,경기도,고양시,일산서구 주엽동 110-2번지 가람상가 208호
407,041-549-2222,"충청남도 아산시 번영로 83, 명종합동물병원 (온천동)",명동물병원,199924,365060,충청남도,아산시,온천동 1353 명종합동물병원
408,416310970,충청남도 홍성군 홍성읍 충서로 1222-5,임만수 동물병원,169219,342745,충청남도,홍성군,홍성읍 남장리 214-14번지
409,416333715,"충청남도 홍성군 홍성읍 조양로 203, 1, 2층",대산 동물병원,170615,344414,충청남도,홍성군,홍성읍 고암리 948
410,534-7582,충청남도 아산시 온천대로 1525 (온천동),가나동물병원,200583,364396,충청남도,아산시,온천동 80-5번지
411,041-544-7744,충청남도 아산시 염치읍 충무로 471-30,아산축산업협동조합(동물병원),200565,368748,충청남도,아산시,염치읍 방현리 296-1번지
412,041-533-3548,충청남도 아산시 둔포면 둔포로 33,중부벳동물병원,203370,380672,충청남도,아산시,둔포면 둔포리 396-1번지
413,401-0275,"경기도 안산시 단원구 초지2로 67, 한미타워 110호 (초지동)",닥터K동물병원,183620,422745,경기도,안산시,단원구 초지동 734-6번지 한미타워 110호
414,549-2222,충청남도 아산시 둔포면 둔포면로  12-8,이동물병원,203269,380692,충청남도,아산시,둔포면 둔포리 414-14번지 414-14
415,545-6796,충청남도 아산시 청운로 159 (권곡동),김광수동물병원,200727,365202,충청남도,아산시,권곡동 537-10번지
416,544-8556,충청남도 아산시 번영로216번길 36 (모종동),정강동물병원,201130,364440,충청남도,아산시,모종동 580-3번지
417,041-541-1222,충청남도 아산시 번영로 133 (온천동),온양동물병원,200429,364989,충청남도,아산시,온천동 1791번지
418,041-541-0275,충청남도 아산시 배방읍 북수서로 32,배방동물병원,206161,363542,충청남도,아산시,배방읍 북수리 1213번지
419,041-547-0275,충청남도 아산시 중앙로 10 (용화동),주앤동물병원,200148,363839,충청남도,아산시,용화동 575번지
420,415453334,충청남도 아산시 시민로 467-41 (온천동),충무가축병원,199657,365373,충청남도,아산시,온천동 1437번지
421,070-4256-8656,충청남도 홍성군 홍성읍 문화로57번길 19,(주)돼지와건강,169350,343731,충청남도,홍성군,홍성읍 옥암리 8-5
422,9530460,"충청남도 서천군 서천읍 서천로14번길 25, 서천가축병원",서천가축병원,172653,286234,충청남도,서천군,서천읍 군사리 179-22번지 서천가축병원
423,041-951-1616,충청남도 서천군 한산면 한마로 65,최가축병원,182190,287310,충청남도,서천군,한산면 지현리 243-2번지
424,041-950-5875,충청남도 서천군 마서면 금강로 1210,국립생태원동물병원,175045,281026,충청남도,서천군,마서면 송내리 755
425,835-2198,충청남도 부여군 부여읍 성왕로 202,금강동물병원,191853,309094,충청남도,부여군,부여읍 구아리 141-3번지 3통
426,835-3760,충청남도 부여군 부여읍 성왕로 182,백동물병원,191723,308923,충청남도,부여군,부여읍 구아리 407-2번지 3통
427,041-832-8321,충청남도 부여군 부여읍 부장대로 4,한라동물병원,191454,308409,충청남도,부여군,부여읍 동남리 546-6번지
428,041-833-8275,충청남도 부여군 부여읍 성왕로 190-1,남부여동물병원,191779,308992,충청남도,부여군,부여읍 구아리 391
429,041-833-2211,충청남도 부여군 임천면 성흥로 103,임천동물병원,190276,298755,충청남도,부여군,임천면 군사리 98번지
430,070-8826-5882,충청남도 부여군 규암면 계백로 76,심동물병원,189884,308336,충청남도,부여군,규암면 규암리 117-5번지 금강타운 102호
431,754-3058,충청남도 금산군 금산읍 인삼로 89 (노아동물병원),노아동물병원,244192,289268,충청남도,금산군,금산읍 중도리 337-3번지 6통5반
432,753-8128,충청남도 금산군 금산읍 오리정1길 45,우신동물병원,243874,289491,충청남도,금산군,금산읍 상리 176-25번지 19통4반
433,751-8880,충청남도 금산군 금산읍 금산로 1444,가믄장 동물병원,243924,289237,충청남도,금산군,금산읍 상리 127-4번지
434,357-0038,충청남도 당진시 무수동로 109 (읍내동),푸른가축병원,167555,376598,충청남도,당진시,읍내동 1252-1
435,041-363-6288,"충청남도 당진시 신평면 덕평로 1273, 1층 104호",종합동물병원,178041,374200,충청남도,당진시,신평면 상오리 418-9
436,350-8700,충청남도 당진시 합덕읍 남부로 1377,당진낙협동물병원,176000,369883,충청남도,당진시,합덕읍 소소리 513-20
437,363-2550,충청남도 당진시 신평면 거산3거리길 4 (거산동물병원),거산동물병원,177887,375261,충청남도,당진시,신평면 거산리 161-4번지 거산동물병원
438,352-6141,충청남도 당진시 무수동로 36 (대덕동),당진종합 동물병원,167603,376227,충청남도,당진시,대덕동 1652
439,352-8575,"충청남도 당진시 당진중앙1로 227, 상록서점 (읍내동)",행담 동물병원,167406,377487,충청남도,당진시,읍내동 300-7 상록서점
440,041-350-5568,"충청남도 당진시 무수동7길 42, 축협배합사료공장 (읍내동)",당진축협동물병원,167974,376470,충청남도,당진시,읍내동 산 66-2
441,356-8575,충청남도 당진시 우두로1길 2 (우두동),현대동물병원,167178,377778,충청남도,당진시,우두동 1436번지
442,041-352-7588,"충청남도 당진시 당진중앙2로 447 (수청동, 로뎀타워 104동)",센트럴동물병원,168469,377749,충청남도,당진시,수청동 999번지 로뎀타워 104동
443,357-1445,"충청남도 당진시 대덕1로 125-84 (대덕동, 카이저)",제일팜산업동물병원,168423,375950,충청남도,당진시,대덕동 1841번지
444,363-0600,충청남도 당진시 합덕읍 남부로 1409,우리동물병원,176124,369540,충청남도,당진시,합덕읍 소소리 465-1
445,634-1335,충청남도 홍성군 홍성읍 조양로 196,세종동물병원,170513,344397,충청남도,홍성군,홍성읍 고암리 548-4번지
446,632-4495,충청남도 홍성군 홍성읍 의사로64번길 32,홍성낙협동물병원,170553,344497,충청남도,홍성군,홍성읍 대교리 91-10번지
447,667-6171,충청남도 서산시 부춘1로 47 (읍내동),홍성낙협서산지점,150418,365088,충청남도,서산시,읍내동 587-3
448,665-7588,충청남도 서산시 율지6로 42 (동문동),한서동물의료센터,151993,364320,충청남도,서산시,동문동 225-1
449,041-667-5525,충청남도 서산시 예천9로 5-1(예천동),서산동물병원,150980,362958,충청남도,서산시,예천동 1643
450,853-6005,충청남도 공주시 우성면 동대리길 78,우성농협,204599,329831,충청남도,공주시,우성면 동대리 145-6 145-6
451,935-1455,충청남도 보령시 천북면 홍보로 417-1,충남동물병원,157371,330505,충청남도,보령시,천북면 하만리 628-4
452,936-7582,충청남도 보령시 번영로 30 (대천동),제일동물병원,163378,316803,충청남도,보령시,대천동 435-20번지
453,041-853-1474,충청남도 공주시 웅진로 235 (금성동),중앙동물병원,211036,328883,충청남도,공주시,금성동 19-29번지
454,041-856-8082,충청남도 공주시 관골1길 63 (신관동),금비동물병원,212066,330327,충청남도,공주시,신관동 256-6
455,041-661-4681,"충청남도 서산시 운산면 해운로 666, 농협중앙회가축개량사업소별관",농협 한우개량사업소 가축병원,161061,362859,충청남도,서산시,운산면 용현리 982 농협중앙회가축개량사업소별관
456,042-841-7533,충청남도 계룡시 엄사면 전원로 8-1,신도안동물병원,221635,310001,충청남도,계룡시,엄사면 엄사리 168-8
457,642-2003,충청남도 홍성군 광천읍 광천로 295,임창일동물병원,166399,333344,충청남도,홍성군,광천읍 광천리 237-36번지
458,632-7775,충청남도 홍성군 홍성읍 조양로 141,충남동물병원,170014,344578,충청남도,홍성군,홍성읍 오관리 285번지
459,934-0013,충청남도 보령시 한내로 21 (동대동),보령동물병원,164596,316375,충청남도,보령시,동대동 1701번지
460,641-9332,충청남도 보령시 천북면 하궁길 13,홍성낙농협동조합 천북동물병원,157596,331234,충청남도,보령시,천북면 하만리 271-2번지
461,041-934-0279,충청남도 보령시 동현로 12 (동대동),훈 동물병원,164817,316826,충청남도,보령시,동대동 1354
462,734-8276,충청남도 논산시 계백로 1006-3 (취암동),캐비어동물병원,207916,300312,충청남도,논산시,취암동 1040-16번지
463,736-8875,충청남도 논산시 중앙로398번길 2 (취암동),호크종합동물병원,207977,299909,충청남도,논산시,취암동 1051-1번지
464,041-734-7511,충청남도 논산시 시민로 417 (취암동),데일리동물병원,207688,300104,충청남도,논산시,취암동 581-7번지
465,563-0075,"충청남도 천안시 서북구 성정두정로 1, 2층 (성정동, 롯데마트)",펫가든동물병원,212479,369462,충청남도,천안시,서북구 성정동 1485번지 롯데마트 2층
466,576-7552,"충청남도 천안시 서북구 쌍용대로 43 (쌍용동, 진주빌딩)",굿모닝24시동물병원,211650,366662,충청남도,천안시,서북구 쌍용동 1176-1
467,555-7008,충청남도 천안시 동남구 병천면 아우내순대길 16,병천동물병원,226508,362015,충청남도,천안시,동남구 병천면 병천리 230-1번지 1통
468,332-8275,충청남도 예산군 예산읍 역전로 70,한일동물병원,184697,353819,충청남도,예산군,예산읍 주교리 225-9번지
469,631-5735,충청남도 홍성군 홍성읍 의사로36번길 51,한길동물병원,170966,344620,충청남도,홍성군,홍성읍 대교리 731번지
470,634-8767,"충청남도 홍성군 홍성읍 법원1길 12, 203호",신베트,168762,344392,충청남도,홍성군,홍성읍 월산리 859-8번지 203호
471,633-4287,"충청남도 홍성군 홍북읍 충남대로 140, SFC타워 4층 404호",피그월드 동물병원,171876,350590,충청남도,홍성군,홍북읍 신경리 942 SFC타워
472,631-7582,충청남도 홍성군 홍성읍 조양로 190,강남동물병원,170452,344409,충청남도,홍성군,홍성읍 고암리 536-1번지
473,041-633-4200,충청남도 홍성군 홍성읍 조양로151번길 25,강영석동물병원,170123,344661,충청남도,홍성군,홍성읍 오관리 297-29번지
474,555-1075,충청남도 천안시 서북구 성정중4길 3 (성정동),페트로 동물병원,211840,369598,충청남도,천안시,서북구 성정동 1230번지
475,735-3113,충청남도 논산시 중앙로 504 (대교동),논산동물병원,207359,300776,충청남도,논산시,대교동 112-1번지 2통
476,735-3490,충청남도 논산시 중앙로480번길 42 (반월동),중앙동물병원,207846,300617,충청남도,논산시,반월동 41-8번지 1통
477,745-4376,충청남도 논산시 강경읍 옥녀봉로19번길 38-1,서동물병원,201256,295365,충청남도,논산시,강경읍 염천리 81번지
478,"742-4287,8",충청남도 논산시 연무읍 안심로127번길 11-2,가나동물병원,208847,292245,충청남도,논산시,연무읍 안심리 1-155번지
479,041-730-2200,충청남도 논산시 시민로194번길 1 (내동),논산계룡축협 동물병원,208827,298264,충청남도,논산시,내동 931
480,733-4290,충청남도 논산시 관촉로 288 (취암동),유명동물병원,208089,300431,충청남도,논산시,취암동 1039-11번지
481,567-7577,"충청남도 천안시 서북구 두정로 114, 102호 (두정동, 두정빌딩)",한빛동물병원,211473,370261,충청남도,천안시,서북구 두정동 544번지 두정빌딩 102호
482,523-7975,"충청남도 천안시 서북구 불당26로 144, 상가1동 203호 (불당동, 천안불당파크푸르지오1단지)",닥터 전 동물병원,209611,368848,충청남도,천안시,서북구 불당동 1492 천안불당파크푸르지오1단지
483,673-1523,충청남도 태안군 안면읍 구억말길 18-21,현대 동물 병원,141486,335423,충청남도,태안군,안면읍 승언리 1223번지
484,672-0679,충청남도 태안군 태안읍 환동로 72-2,선 동물 병원,136920,361575,충청남도,태안군,태안읍 남문리 462-6번지
485,041-675-8275,충청남도 태안군 태안읍 후곡로 111 (진경빌딩 1층),태안 동물병원,137726,360809,충청남도,태안군,태안읍 남문리 713-1
486,041-672-0346,충청남도 태안군 태안읍 중앙로 31-2,최기중 동물병원,136841,361848,충청남도,태안군,태안읍 남문리 504-8
487,041-675-3378,충청남도 태안군 태안읍 동백로 206,이창석 동물병원,136860,361434,충청남도,태안군,태안읍 남문리 636-2번지
488,041-675-4675,"충청남도 태안군 태안읍 중앙로 144, 1층 (동안아파트)",라온 반려 동물병원,137775,361218,충청남도,태안군,태안읍 동문리 342-3번지
489,041-554-0075,"충청남도 천안시 서북구 한들2로 8, 1층 101호 (백석동, 정석프라자빌딩)",다함동물병원,210537,369136,충청남도,천안시,서북구 백석동 150-2번지
490,567-7552,충청남도 천안시 서북구 삼성대로 20 (백석동),웰니스동물병원,210827,370796,충청남도,천안시,서북구 백석동 1047
491,041-523-0079,"충청남도 천안시 서북구 검은들3길 48 (불당동, 현대프라자)",불당동물병원,209638,367643,충청남도,천안시,서북구 불당동 728
492,041-555-2575,"충청남도 천안시 서북구 동서대로 7, 2층 (백석동, 이현빌딩)",나우동물의료센터,211029,369209,충청남도,천안시,서북구 백석동 9-3
493,041-554-7700,"충청남도 천안시 서북구 불당34길 26, 1층 9,10,11호 (불당동)",천안모아동물병원,209445,367329,충청남도,천안시,서북구 불당동 1817
494,041-557-7553,"충청남도 천안시 서북구 불당25로 192, 124호 (불당동, 골든주차타워)",정다운동물병원,209653,368548,충청남도,천안시,서북구 불당동 1487번지
495,041-549-7582,"충청남도 천안시 서북구 공원로 120, 천안불당2차 중흥s클레스 프라디움레이크 상가3동 103,104호 (불당동)",제이동물병원,208821,365971,충청남도,천안시,서북구 불당동 1284번지 천안불당2차 중흥s클레스 프라디움레이크 성가3동 103호
496,041-561-8613,"충청남도 천안시 서북구 원두정8길 40, 도정빌딩 (두정동)",더펫동물병원,212202,370103,충청남도,천안시,서북구 두정동 864번지 도정빌딩
497,041-943-2326,충청남도 청양군 청양읍 칠갑산로 236-2,중앙동물병원,182229,327778,충청남도,청양군,청양읍 읍내리 202-13번지
498,041-942-9978,충청남도 청양군 정산면 칠갑산로 1912,정산가축병원,195450,323448,충청남도,청양군,정산면 서정리 156-37번지
499,041-943-8275,충청남도 청양군 청양읍 칠갑산로 256,종합동물병원,182424,327751,충청남도,청양군,청양읍 읍내리 164-2
500,041-942-7062,충청남도 청양군 청양읍 문화예술로 109,미래동물병원,181826,327590,충청남도,청양군,청양읍 읍내리 289-5번지
501,031-885-7475,경기도 여주시 청심로 17-7 (하동),나무동물병원,255104,422311,경기도,여주시,하동 430-5번지
502,031-429-7575,"경기도 안양시 동안구 흥안대로 110, 1층,지층 (호계동)",한빛동물병원,196114,429751,경기도,안양시,동안구 호계동 967-24
503,665-7763,경기도 평택시 청북읍 율북로 13,건국동물병원 (출장진료 전문),198358,394472,경기도,평택시,청북읍 어연리 108-1
504,031-611-5736,경기도 평택시 송탄로 202 (서정동),한호동물병원,205138,395581,경기도,평택시,서정동 908-2
505,665-0376,경기도 평택시 청북면 율북로 13,제갈동물병원 (출장진료 전문),198358,394472,경기도,평택시,청북면 어연리 108-1
506,031-668-9935,경기도 평택시 고덕면 동청1길 35,보람동물병원,200505,394812,경기도,평택시,고덕면 동청리 25-8
507,657-1062,경기도 평택시 평택로 80 (평택동),맥동물병원,207485,388053,경기도,평택시,평택동 71-6
508,655-1101,"경기도 평택시 평택로 17, 1층 104호 (평택동, 롯데인벤스 스카이)",이모란동물병원,207846,387444,경기도,평택시,평택동 316번지 롯데인벤스 스카이 104호
509,611-1766,경기도 평택시 지산로 34 (지산동),필립동물병원,205148,397470,경기도,평택시,지산동 777
510,654-2505,경기도 평택시 문화촌로11번길 51-11 (비전동),믿음동물병원(출장진료 전문),209986,388455,경기도,평택시,비전동 866-11
511,655-6941,경기도 평택시 평택로 69 (평택동),PET25시동물병원,207517,387939,경기도,평택시,평택동 59-39
512,031-374-4644,경기도 오산시 성호대로 36 (오산동),진선동물병원,205722,405255,경기도,오산시,오산동 609-55번지
513,031-377-7582,경기도 오산시 성호대로 108 (원동),오산동물병원,206439,405202,경기도,오산시,원동 754-3번지
514,031-374-1175,경기도 오산시 대원로 37-1 (원동),원 종합동물병원,206382,404972,경기도,오산시,원동 758-8번지
515,031-373-8486,"경기도 오산시 경기대로 174, 다모아프라자 101,102호 (원동)",우리동물병원,206487,404278,경기도,오산시,원동 372-1 다모아프라자
516,031-374-2579,"경기도 오산시 수청로 189, 웅신아트프라자 104,202호 (금암동)",미소 동물병원,204004,408332,경기도,오산시,금암동 516-6 웅신아트프라자
517,031-378-1514,"경기도 오산시 원동로 6, 파크스퀘어 105,106호 (원동)",저스트벳 동물병원,206118,404475,경기도,오산시,"원동 841번지 파크스퀘어 105,6호"
518,031-374-1275,"경기도 오산시 오산로 91-10 (갈곶동, 광성빌딩 101호)",참동물병원,206030,403734,경기도,오산시,갈곶동 659-1번지 광성빌딩 101호
519,655-4980,경기도 평택시 평택로 105 (통복동),종합동물병원,207286,388238,경기도,평택시,통복동 109-3번지
520,651-8272,경기도 평택시 평남로 655 (비전동),튼튼동물병원,209479,387880,경기도,평택시,비전동 191-2번지
521,031-652-8921,"경기도 평택시 중앙2로 79, 1층 (합정동)",이형윤동물병원,208464,387728,경기도,평택시,합정동 507-19
522,031-657-4671,"경기도 평택시 평남로 1050, 1층 103호 (동삭동)",two현동물병원,208354,389815,경기도,평택시,동삭동 662-4 103호
523,031-692-7114,경기도 평택시 팽성읍 안정쇼핑로 3,강남동물병원,203786,384176,경기도,평택시,팽성읍 안정리 113-224
524,031-682-2470,경기도 평택시 안중읍 안중로99번길 13-1,오암동물병원,193467,387591,경기도,평택시,안중읍 안중리 245-17
525,662-4805,경기도 평택시 탄현로 310-1 (지산동),심재훈동물병원,204843,397593,경기도,평택시,지산동 766-4번지
526,031-262-8700,경기도 용인시 수지구 수지로296번길 30 (풍덕천동),순수동물병원,208116,424558,경기도,용인시,수지구 풍덕천동 697-3번지
527,031-892-7775,"경기도 용인시 수지구 성복1로 106, 107호 (성복동, 벽산프라자)",해담은동물병원,205983,423862,경기도,용인시,수지구 성복동 278-1번지
528,031-272-7583,"경기도 용인시 수지구 성복2로 100, 113호 (성복동, 예반아이엔프라자)",즐거운동물병원,206620,423723,경기도,용인시,수지구 성복동 162-2번지 예반아이엔프라자 113호
529,263-3575,"경기도 용인시 수지구 성복2로76번길 26-3, B101호 (성복동, 드림타워)",성복동물병원,207103,423695,경기도,용인시,수지구 성복동 740-1번지 6통3반 드림타워 B101호
530,031-320-8936,경기도 용인시 처인구 포곡읍 에버랜드로376번길 1-27,삼성안내견학교 부속동물병원,218291,422277,경기도,용인시,처인구 포곡읍 유운리 505
531,031-264-7502,"경기도 용인시 수지구 대지로 58 (죽전동, 선진포리스트)",죽전예담동물병원,210159,425189,경기도,용인시,수지구 죽전동 1254-3번지 104호
532,031-898-4300,경기도 용인시 수지구 포은대로 450 (풍덕천동),하임동물병원,208813,424478,경기도,용인시,수지구 풍덕천동 100-17
533,031-548-2911,"경기도 용인시 수지구 신봉2로 115-46, 1층 (신봉동)",어울림동물병원,206070,425243,경기도,용인시,수지구 신봉동 955-1번지
534,312127515,"경기도 용인시 수지구 광교마을로 91, 102,103호 (상현동)",광교호수 동물병원,206552,421755,경기도,용인시,수지구 상현동 1130-2
535,031-261-7512,"경기도 용인시 수지구 포은대로 552, 3층 (죽전동, 이마트)",죽전 쿨펫동물병원,209673,424824,경기도,용인시,수지구 죽전동 1282
536,031-666-6501,경기도 평택시 서정역로58번길 30 (서정동),경기동물병원(출장진료 전문),204789,395373,경기도,평택시,서정동 303-1
537,031-771-7278,"경기도 양평군 양서면 양수로 170, 1층",개포동물병원,228008,449275,경기도,양평군,양서면 양수리 565-11
538,031-772-3332,경기도 양평군 양평읍 양근로 214,양평가축병원,243430,443018,경기도,양평군,양평읍 양근리 284-1
539,031-772-0075,경기도 양평군 양평읍 시민로 90,참 좋은 동물병원,244273,443260,경기도,양평군,양평읍 공흥리 468-23
540,031-771-7585,경기도 양평군 용문면 용문로 334,용문조아동물병원,252276,442462,경기도,양평군,용문면 다문리 743-3
541,332-3070,"경기도 용인시 처인구 명지로 17, 2층 202호 (역북동)",용인동물병원,216708,414743,경기도,용인시,처인구 역북동 722-1
542,332-4179,경기도 용인시 처인구 백암면 백암로201번길 24,제일동물병원,233026,407105,경기도,용인시,처인구 백암면 백암리 415번지
543,334-3304,경기도 용인시 처인구 포곡읍 전대로 27-2,포곡동물병원,219558,420014,경기도,용인시,처인구 포곡읍 전대리 152-2번지
544,332-7951,경기도 용인시 처인구 원삼면 좌찬로 93,한솔동물병원,228372,411389,경기도,용인시,처인구 원삼면 좌항리 141-6
545,031-681-2406,"경기도 평택시 안중읍 안중로 94, 105동 (평창빌딩)",정동물병원,193435,387435,경기도,평택시,안중읍 안중리 253-9
546,031-896-7590,"경기도 용인시 수지구 신봉1로 68, 106,107호 (신봉동)",스카이동물병원,206866,424522,경기도,용인시,수지구 신봉동 23
547,031-264-1997,"경기도 용인시 수지구 성복2로 114, 111호 (성복동, 플러스클리닉수지센터)",꿈에동물병원,206445,423784,경기도,용인시,수지구 성복동 129-1번지
548,321-7510,"경기도 용인시 처인구 백옥대로 1058, 남곡빌딩 (김량장동)",용인센트럴동물병원,218620,414283,경기도,용인시,처인구 김량장동 12-15번지 남곡빌딩
549,070-8807-8375,경기도 용인시 처인구 백암면 백암로185번길 46,마리동물의료센터,232955,406996,경기도,용인시,처인구 백암면 백암리 436-1
550,031-334-4589,경기도 용인시 처인구 중부대로 1136 (삼가동),펫 동물병원,215148,415368,경기도,용인시,처인구 삼가동 197-30
551,031-339-5575,경기도 용인시 처인구 경안천로 2 (마평동),굿모닝동물병원,218677,414646,경기도,용인시,처인구 마평동 907번지
552,031-320-8708,경기도 용인시 처인구 포곡읍 에버랜드로 199,에버랜드 동물병원,219138,420904,경기도,용인시,처인구 포곡읍 전대리 310
553,835-0815,경기도 연천군 전곡읍 전곡역로 47,성심동물병원,205917,502320,경기도,연천군,전곡읍 전곡리 302-27번지 2통17반
554,031-852-3119,"경기도 의정부시 충의로 49 (용현동, 용운빌딩)",현대동물의료센터,207636,470408,경기도,의정부시,용현동 14-3
555,031-876-7511,경기도 의정부시 회룡로 178 (장암동),나은동물병원,204643,469326,경기도,의정부시,장암동 20-14
556,031-851-0901,"경기도 의정부시 호국로 1336, 탑빌딩 2층 (의정부동)",펫인쥬동물메디컬센터,204544,471288,경기도,의정부시,의정부동 16-1 탑빌딩
557,031-822-6619,"경기도 의정부시 오목로 215, 1층 104호 (민락동, 송림프라자)",나라동물병원,208662,471453,경기도,의정부시,민락동 843-3번지 30통2반 송림프라자 201동 403호
558,031-852-7502,"경기도 의정부시 민락로 210, 4층 (민락동, 이마트)",위즈펫동물병원,208952,471192,경기도,의정부시,민락동 849번지
559,031-773-3176,경기도 양평군 용문면 용문로 353,용문동물병원,252391,442625,경기도,양평군,용문면 다문리 728-18
560,031-375-8875,"경기도 오산시 운천로 3 (원동, 101호, 201호)",경기동물메디컬센터,206510,404582,경기도,오산시,"원동 299-1 101호, 201호"
561,287-7275,"경기도 용인시 기흥구 마북로 141, 104호 (마북동)",해피동물병원,210758,422356,경기도,용인시,기흥구 마북동 173
562,772-2727,경기도 양평군 양평읍 미리내길 96,유일동물병원,247232,442234,경기도,양평군,양평읍 도곡리 286-1
563,031-772-8275,경기도 양평군 양평읍 남북로 97,우람동물병원,244356,443365,경기도,양평군,양평읍 공흥리 484-4
564,686-7582,경기도 평택시 안중읍 안현로서6길 38,현화동물병원,193265,387026,경기도,평택시,안중읍 현화리 45번지
565,665-0046,경기도 평택시 탄현로 276 (지산동),안창선동물병원,204869,397261,경기도,평택시,지산동 824-2번지
566,031-683-3003,경기도 평택시 안중읍 서해로 1146-20,평택축협동물병원,194709,388266,경기도,평택시,안중읍 안중리 194-14
567,832-7771,경기도 연천군 전곡읍 전곡로 140,사랑동물병원,206002,502442,경기도,연천군,전곡읍 전곡리 468-24
568,031-833-1722,경기도 연천군 청산면 학담로 93-2,혜성동물병원,206246,499430,경기도,연천군,청산면 초성리 214-3
569,265-7512,경기도 용인시 수지구 풍덕천로 113 (풍덕천동),한마음동물병원,208282,424511,경기도,용인시,수지구 풍덕천동 1075-4
570,031-336-1245,경기도 용인시 처인구 백암면 근창로 45,백암동물병원,232802,406878,경기도,용인시,처인구 백암면 근창리 20-4번지
571,031-666-7582,"경기도 평택시 세교7길 50, JY빌딩 (세교동)",블리스 동물의료센터,207883,389409,경기도,평택시,세교동 0
572,316511175,"경기도 평택시 비전3로 27, 104, 105호 (비전동)",비전동물병원,209268,389008,경기도,평택시,비전동 1027-2
573,031-686-7975,경기도 평택시 안중읍 안현로서8길 35-4 (101호),송담동물병원,192933,386401,경기도,평택시,안중읍 현화리 834-2 101호
574,031-692-2250,경기도 평택시 오성면 숙성시장길 65 (명성빌라),한동물병원 (출장진료 전문),198586,389660,경기도,평택시,오성면 숙성리 185-10
575,031-618-8275,경기도 평택시 평택로 84-1 (평택동),김기혁 동물병원 평택동점,207457,388091,경기도,평택시,평택동 71-14번지
576,263-7588,"경기도 용인시 수지구 풍덕천로 135, 103호 (풍덕천동, 요진타워)",세브란스동물병원,208482,424649,경기도,용인시,수지구 풍덕천동 713-6번지 요진타워 103호
577,031-8005-9725,"경기도 용인시 기흥구 동백중앙로 177 (중동, 동백씨엘뷰 오피스텔)",리치펫동물병원,213569,418716,경기도,용인시,기흥구 중동 852-2번지
578,031-265-7505,"경기도 용인시 기흥구 죽현로 29, 102호 (보정동, 현대휴먼프라자)",튼튼동물병원,210023,424170,경기도,용인시,기흥구 보정동 1266-6번지 현대휴먼프라자 102호
579,031-283-1357,경기도 용인시 기흥구 용구대로 2457 (보정동),Wellness clinic 동물병원,209272,422612,경기도,용인시,기흥구 보정동 1019-237번지
580,031-233-2836,경기도 용인시 기흥구 신갈로 85 (신갈동),(주)에니멀클리닉컨설팅(출장진료전문병원),209286,419154,경기도,용인시,기흥구 신갈동 38-5번지 17통3반
581,338-7975,경기도 용인시 처인구 포곡읍 포곡로 90,나라동물병원,219078,418409,경기도,용인시,처인구 포곡읍 둔전리 385번지
582,031-263-7585,"경기도 용인시 수지구 수지로 203 (신봉동,이마트수지점 3층)",로얄벳 동물병원,207319,424205,경기도,용인시,수지구 신봉동 909번지 이마트수지점 3층
583,031-276-0282,"경기도 용인시 수지구 신봉2로 19, 102호 (신봉동,신엘지프라자)",펫스토리 동물병원,206763,424729,경기도,용인시,수지구 신봉동 83번지 신엘지프라자 102호
584,031-897-7582,"경기도 용인시 수지구 동천로99번길 3 (동천동, 제일프라자 101~102호)",강남동물병원,208159,426213,경기도,용인시,수지구 동천동 344-2 제일프라자 101~102호
585,031-264-7525,경기도 용인시 수지구 만현로 110 (상현동),참누리동물병원,207424,422761,경기도,용인시,수지구 상현동 254-14번지
586,031-264-7553,경기도 용인시 수지구 용구대로 2794 (죽전동),초이스동물병원,209624,425913,경기도,용인시,수지구 죽전동 915-3번지
587,031-263-0085,경기도 용인시 수지구 수지로 421 (동천동),AP동물병원,208565,425809,경기도,용인시,수지구 동천동 886-1번지
588,031-266-8898,"경기도 용인시 수지구 만현로 95, B102호 (상현동, 수지3차쌍용스윗닷홈상가)",애니펫동물병원,207661,422815,경기도,용인시,수지구 상현동 852번지 수지3차쌍용스윗닷홈상가 B102호
589,031-896-3881,"경기도 용인시 수지구 현암로 136, 101호 (죽전동, 세종프라자)",영동동물병원,210956,425506,경기도,용인시,수지구 죽전동 1191-1번지 세종프라자 101호
590,031-265-1175,"경기도 용인시 수지구 손곡로 107 (동천동, 대영프라자 102호,201호)",동일동물병원,207967,425989,경기도,용인시,"수지구 동천동 946-4 대영프라자 102호,201호"
591,031-275-7579,"경기도 용인시 기흥구 연원로 1, 101호 (마북동, 연원마을LG아파트상가)",구성동물병원,209490,422183,경기도,용인시,기흥구 마북동 526-3번지
592,031-274-3575,"경기도 용인시 기흥구 강남동로 15, 103호 (구갈동)",제일종합동물병원,211385,418818,경기도,용인시,기흥구 구갈동 589번지 103호
593,031-281-0811,"경기도 용인시 기흥구 새천년로16번길 3-2, 101호 (신갈동, 월드프라자)",우리동네동물병원,209793,420761,경기도,용인시,기흥구 신갈동 722번지 101호
594,031-898-3708,"경기도 용인시 기흥구 보정로 32 (보정동, 지젤스포츠클럽)",보정동물병원,209787,423563,경기도,용인시,기흥구 보정동 1277번지
595,031-262-0306,"경기도 용인시 수지구 수지로 124, 성복스퀘어/근린생활시설 201~208호 (성복동)",24시 사람앤동물메디컬센터,207019,423413,경기도,용인시,수지구 성복동 67-6 성복스퀘어/근린생활시설
596,031-898-2298,"경기도 용인시 수지구 만현로 120, SR프라자 112호 (상현동)",정 동물병원,207438,422690,경기도,용인시,수지구 상현동 252번지 SR프라자
597,031-266-2900,"경기도 용인시 수지구 동천로 60, 1층 (동천동)",에이스 동물병원,208484,426483,경기도,용인시,수지구 동천동 174-15
598,031-665-7585,경기도 평택시 경기대로 1511 (지산동),김대일동물병원,205504,397511,경기도,평택시,지산동 1080
599,031-656-8575,경기도 평택시 평택5로114번길 54 (비전동),펫필드동물병원,209931,388148,경기도,평택시,비전동 831-5
600,656-0524,경기도 평택시 중앙로 141 (비전동),코리아동물병원,208717,387910,경기도,평택시,비전동 759-27
601,3180086212,경기도 평택시 진위면 동천길 132-93,경기도 야생동물 구조관리센터,210455,403351,경기도,평택시,진위면 동천리 56-3
602,031-651-5975,"경기도 평택시 평택5로 30, 3층 (합정동, 롯데마트)",쿨펫동물병원,209876,387425,경기도,평택시,합정동 968-1 롯데마트 3층
603,031-683-1333,경기도 평택시 현덕면 인광2길 58,굿모닝동물병원,193961,384680,경기도,평택시,현덕면 황산리 62-5 9통
604,662-8222,경기도 평택시 추담로 102 (이충동),맑은숲동물병원,206266,395553,경기도,평택시,이충동 179번지
605,031-683-8764,"경기도 평택시 안중읍 안현로서9길 5, 2층",안중동물병원,193121,386132,경기도,평택시,안중읍 현화리 172-3
606,031-651-8879,"경기도 평택시 비전2로 192 (비전동, 메가타워)",타잔동물병원,209885,388783,경기도,평택시,비전동 1090-3번지 401호
607,031-8054-7582,경기도 평택시 만세로 1842 (비전동),봄날동물의료센터,209121,389247,경기도,평택시,비전동 996-2
608,041-580-3409,경기도 평택시 팽성읍 노와2길 48-16,국립축산과학원 축산자원개발부 동물병원,208510,382934,경기도,평택시,팽성읍 노와리 270
609,031-667-8275,"경기도 평택시 송탄로 147, 태광 1층 (이충동)",마음가득동물병원,205175,395024,경기도,평택시,이충동 451-7번지
610,335-8275,경기도 용인시 처인구 금령로 26 (김량장동),애견종합병원,217583,414768,경기도,용인시,처인구 김량장동 333-2번지
611,031-284-8875,"경기도 용인시 기흥구 구갈로 94 (구갈동, 주주동물병원)",주주동물병원,209821,420086,경기도,용인시,기흥구 구갈동 345-1번지
612,031-338-6771,"경기도 용인시 처인구 금령로55번길 6, 1층 (김량장동)",용인축협동물병원(산업동물출장진료전문),217903,414865,경기도,용인시,처인구 김량장동 254-139번지
613,031-334-7580,"경기도 용인시 처인구 모현읍 백옥대로 2362, 왕산태권도학원",행복동물병원,222018,425846,경기도,용인시,처인구 모현읍 왕산리 428-1번지 왕산태권도학원
614,031-338-7588,경기도 용인시 처인구 양지면 중부대로 2219,양지종합동물병원,225368,414665,경기도,용인시,처인구 양지면 양지리 480-1번지
615,313357578,경기도 용인시 처인구 명지로 185 (남동),닥터페티앙동물병원,217313,413866,경기도,용인시,처인구 남동 71-48번지
616,031-322-8875,경기도 용인시 처인구 원삼면 죽양대로 1982,김재원 동물병원,228548,412471,경기도,용인시,처인구 원삼면 좌항리 1-10번지
617,031-215-7975,"경기도 용인시 기흥구 흥덕2로87번길 18 (영덕동, 이씨티)",Dr.J동물병원,206306,419314,경기도,용인시,기흥구 영덕동 985-1번지
618,031-217-7119,"경기도 용인시 기흥구 흥덕중앙로 59 (영덕동, 용인흥덕노블레스흥덕노블레스)",흥덕종합동물병원,206467,419396,경기도,용인시,기흥구 영덕동 975-7번지
619,898-0330,"경기도 용인시 수지구 현암로125번길 6, 105호 (죽전동, 그린프라자)",파우동물병원,210879,425585,경기도,용인시,수지구 죽전동 1178-1번지 그린프라자 105호
620,031-272-1199,"경기도 용인시 수지구 수지로112번길 11, 1층 104호 (성복동)",정다운종합동물병원,207061,423401,경기도,용인시,수지구 성복동 66-10번지
621,879-4478(9),경기도 의정부시 신흥로 171 (의정부동),로얄펫동물병원,203749,469879,경기도,의정부시,의정부동 594-2
622,031-852-7542,경기도 의정부시 용현로 130 (민락동),민락동물병원,207899,470951,경기도,의정부시,민락동 738-6번지
623,031-846-9600,경기도 의정부시 시민로 154 (의정부동),의정부종합동물병원,204529,470532,경기도,의정부시,의정부동 94-2번지
624,031-826-8875,경기도 의정부시  평화로  374 (호원동),호원종합동물병원,204212,469206,경기도,의정부시,호원동 425번지
625,855-0275,경기도 의정부시 녹양로 66 (녹양동),녹양동물병원,202869,472705,경기도,의정부시,녹양동 354-1
626,031-853-7550,경기도 의정부시 부용로 187 (신곡동),하나동물병원,206800,472111,경기도,의정부시,신곡동 772-2번지
627,031-845-2500,경기도 의정부시 호국로 1300 (의정부동),프렌즈동물병원,204215,471214,경기도,의정부시,의정부동 187-18
628,031-334-6125,경기도 용인시 처인구 중부대로 1307 (역북동),이리온 동물메디컬센터,216803,414937,경기도,용인시,처인구 역북동 428-12
629,031-335-7582,경기도 용인시 처인구 경안천로 46 (마평동),드림24 동물병원,218620,415056,경기도,용인시,처인구 마평동 717-3
630,031-324-3467,"경기도 용인시 처인구 중부대로 1074-1, 용인시 동물보호센터 (삼가동)",용인시 동물보호센터,214073,415719,경기도,용인시,처인구 삼가동 164 용인시 동물보호센터
632,281-7585,경기도 용인시 기흥구 구갈로 53 (구갈동),24시동물병원,209775,419688,경기도,용인시,기흥구 구갈동 391-5번지
633,031-266-2993,"경기도 용인시 기흥구 죽전로 49, 101호 (보정동)",죽전동물병원,210058,424310,경기도,용인시,기흥구 보정동 1208-2번지 씨티프라자
634,031-285-8275,경기도 용인시 기흥구 평촌2로1번길 9-1 (동백동),제이엘 동물병원,213589,419911,경기도,용인시,기흥구 동백동 212-7번지
635,031-693-8627,"경기도 용인시 기흥구 동백5로 21-11, 107호 (중동, 동백훼미리프라자 1)",동백동물병원,213479,419519,경기도,용인시,기흥구 중동 832-1번지 107호
636,285-6334,경기도 용인시 기흥구 신갈로 20 (상갈동),현대동물병원,209303,418499,경기도,용인시,기흥구 상갈동 102-12 41통2반
637,8005-7507,경기도 용인시 기흥구 평촌1로8번길 11-4 (동백동),레이크동물병원,213482,420390,경기도,용인시,기흥구 동백동 607-11번지
638,286-2275,경기도 용인시 기흥구 한보라2로14번길 4-14 (보라동),우리동물병원,209710,416877,경기도,용인시,기흥구 보라동 581-1번지
639,031-679-0551,"경기도 용인시 기흥구 동백죽전대로 444 (중동, 쥬네브썬월드빌딩)",쿨펫 동물병원,213384,419575,경기도,용인시,"기흥구 중동 833번지 쥬네브썬월드 B036,B037호"
640,031-889-7556,"경기도 용인시 기흥구 보정로 117 (보정동, 리베로3)",해뜰동물병원,210063,424209,경기도,용인시,기흥구 보정동 122호
641,031-826-7582,"경기도 의정부시 청사로 37 (금오동,신세계프라자 112호)",금오동물병원,206088,472117,경기도,의정부시,금오동 473-3번지 신세계프라자 112호
642,875-1476,경기도 의정부시 가능로 37 (가능동),가능동물병원,203022,471587,경기도,의정부시,가능동 668-13번지 3통5반
643,843-1415,경기도 의정부시 동일로 468(신곡동),장암종합동물병원,205169,469749,경기도,의정부시,신곡동 336-1
644,031-851-7373,"경기도 의정부시 청사로 38, 홈플러스 3층 (금오동)",도그플러스 동물병원,206192,472186,경기도,의정부시,금오동 475-1번지 홈플러스 3층
645,031-875-1559,"경기도 의정부시 평화로 239, 1층 105호 (호원동)",달빛동물병원,204079,467865,경기도,의정부시,호원동 454
646,031-875-8090,경기도 의정부시 태평로 102-1 (의정부동),에이스동물메디컬센터,204499,471014,경기도,의정부시,의정부동 26-6번지
647,031-840-0075,경기도 의정부시 추동로 13 (신곡동),오즈동물병원,204995,471185,경기도,의정부시,신곡동 673-6
648,031-874-7533,"경기도 의정부시 외미로 91, 1층 (호원동)",하트만 동물병원,203939,469119,경기도,의정부시,호원동 316-171
649,031-871-7588,경기도 의정부시 태평로 52 (의정부동),의정부 24시 IU 동물병원,204485,470504,경기도,의정부시,의정부동 94-6
650,031-286-8999,경기도 용인시 기흥구 민속촌로 43 (보라동),하은동물병원,209669,417047,경기도,용인시,기흥구 보라동 407-1번지
651,031-893-6119,경기도 용인시 기흥구 민속촌로 8 (보라동),보라종합동물병원,209317,417010,경기도,용인시,기흥구 보라동 413-6번지
652,031-548-2526,경기도 용인시 기흥구 평촌1로2번길 6 (동백동),용인도담동물병원,213545,420299,경기도,용인시,기흥구 동백동 605-11번지
653,031-235-0075,"경기도 용인시 기흥구 서천로127번길 3-3, 105호 (서천동)",유앤미동물병원,206358,414991,경기도,용인시,기흥구 서천동 814번지
654,031-287-9900,"경기도 용인시 기흥구 구성로 111, 102호 (언남동, 채러티디벨로퍼(주))",기흥동물병원,210696,421283,경기도,용인시,기흥구 언남동 242-4번지 102호
655,031-275-6549,"경기도 용인시 기흥구 마북로 164, A동 1층 1,2호 (마북동, 테라스가든A빌딩)",함께하는 동물병원,210952,422447,경기도,용인시,기흥구 마북동 182번지
656,031-203-4727,경기도 용인시 기흥구 서천서로12번길 4-8 (서천동),봄동물병원,206495,415404,경기도,용인시,기흥구 서천동 730-2번지
657,261-8277,경기도 용인시 수지구 문인로39번길 3-1 (풍덕천동),대학동물병원,208655,425658,경기도,용인시,수지구 풍덕천동 666-1번지
658,031-284-9200,경기도 용인시 기흥구 어정로 134-12 (중동),어정동물병원,212829,419224,경기도,용인시,기흥구 중동 760-1번지
659,847-7335,경기도 의정부시 금신로 317 (신곡동),사랑동물병원,205437,471352,경기도,의정부시,신곡동 519-26번지
660,877-0675(6),경기도 의정부시 신흥로 357-1 (가능동),신촌동물병원,203675,471757,경기도,의정부시,가능동 648-23번지
661,211-3375,울산광역시 중구 번영로 581 (남외동),메이 동물병원,412557,232481,울산광역시,중구,남외동 214-1번지
662,070-4113-7566,전라북도 전주시 덕진구 한배미1길 61 (인후동1가),더펫 동물병원,215097,258089,전라북도,전주시,덕진구 인후동1가 948-3
663,032-323-2475,"경기도 부천시 길주로 281, 동화빌딩 (중동)",TLC 동물의료센터,179961,444646,경기도,부천시,중동 1058-5 동화빌딩
664,051-715-2228,"부산광역시 해운대구 해운대로 369, 해운대센텀메디칼센터 (우동)",벡스코 동물병원,394690,187761,부산광역시,해운대구,우동 1124-26번지 해운대센텀메디칼센터
665,042-222-1117,"대전광역시 중구 계룡로 926-1, 1,2층 (대사동)",대전우리동물의료센터,237215,313314,대전광역시,중구,"대사동 248-365 1,2층"
666,427197566,대전광역시 유성구 계룡로 131 (봉명동),24시 성심동물메디컬센터,230923,316964,대전광역시,유성구,봉명동 548-11
667,054-462-0075,"경상북도 구미시 구미대로 174, 홈플러스 구미광평점 2층 (광평동)",도그플러스 동물병원,322735,290001,경상북도,구미시,광평동 792-21 홈플러스 구미광평점
668,02-6956-2475,"서울특별시 관악구 남부순환로 1861, 1층 103호 (봉천동)",24시 굿케어동물의료센터,196120,441980,서울특별시,관악구,봉천동 1673-21 1층 103호
669,6369-0075,"서울특별시 도봉구 마들로 695, 1층 (도봉동)",빛가온동물병원,204021,463312,서울특별시,도봉구,도봉동 623-103번지 1층
670,02-946-0011,"서울특별시 강북구 삼양로24길 19, 102동 110호 (미아동, 현대성우아파트)",아이사랑동물병원,201882,457207,서울특별시,강북구,미아동 561-2번지 현대성우아파트 102동 110호
671,051-529-2991,부산광역시 동래구 충렬대로 435 (안락동),대일종합동물병원,391745,190618,부산광역시,동래구,안락동 299-3번지
672,02-2232-9702,"서울특별시 중구 다산로 83-1, 3층 (신당동)",애니컴 메디컬센터,200640,449978,서울특별시,중구,신당동 353-130
673,031-994-7599,"경기도 남양주시 다산중앙로 109, 205호 (다산동)",자연앤동물병원,213477,457853,경기도,남양주시,다산동 6089-3번지
674,5657553,"경기도 남양주시 다산순환로 350, KB 골든타워 1층 110호 (다산동)",다산마리동물병원,213646,458170,경기도,남양주시,"다산동 6053번지 다산진건지구 상업2-7-1,2"
675,064-725-7579,"제주특별자치도 제주시 중앙로 273, 나라키움 1층 106호 (이도이동)",제주 키움 동물병원,156504,87,제주특별자치도,제주시,이도이동 1860-1번지
676,02-6964-8276,서울특별시 은평구 은평로 213 (녹번동),치유동물의료센터,193868,455457,서울특별시,은평구,녹번동 215
677,055-902-4515,"경상남도 김해시 분성로 290, 2층 (서상동)",퍼스트 동물병원,370867,194227,경상남도,김해시,서상동 331-2
678,3491-8000,"서울특별시 도봉구 도봉로 669, 1층 (방학동)",현대종합동물병원,203642,462447,서울특별시,도봉구,방학동 680-1번지 1층
679,055-337-6890,"경상남도 김해시 인제로 166, 3층 (어방동)",해밀동물의료센터,373254,195452,경상남도,김해시,어방동 473
680,031-8042-7585,"경기도 안산시 단원구 고잔로 88, 207-209호 (고잔동)",참동물의료센터,185397,424096,경기도,안산시,단원구 고잔동 534-2
681,031-711-8275,"경기도 성남시 분당구 성남대로 45, 계영빌딩 202, 203호 (구미동)",24시분당리더스동물의료원,209534,426450,경기도,성남시,"분당구 구미동 157 계영빌딩 202, 203호"
682,032-223-0119,"인천광역시 미추홀구 경인로 428, 1층 (주안동)",사랑애동물메디컬센터,172292,439554,인천광역시,미추홀구,주안동 302-1 삼성생명빌딩
683,051-626-5050,"부산광역시 남구 용호로 68, 2층 (용호동)",W동물의료센터,392358,182741,부산광역시,남구,용호동 164번지
684,053-767-1190,"대구광역시 수성구 동대구로 36, 3층 (지산동)",대구24시 야간응급연합동물병원,346695,260488,대구광역시,수성구,지산동 1051번지 3층
685,414-2579,"경기도 안산시 상록구 화랑로 534, 113,114호 (성포동, 안산파크푸르지오)",미소돌봄동물병원,186416,424162,경기도,안산시,상록구 성포동 747 안산파크푸르지오
686,031-692-5022,"경기도 평택시 비전5로 20-24, 더테라스 207,208호 (비전동)",24시 라움동물의료센터,210073,388589,경기도,평택시,비전동 1103-1
687,02-545-4975,"서울특별시 강남구 논현로 813, 영석빌딩 지하1층,1층 (신사동)",에이드동물병원,202383,446552,서울특별시,강남구,신사동 586-3 영석빌딩
688,063-276-3939,"전라북도 전주시 덕진구 백석로 18, 103호 (송천동2가)",자스민 동물병원,212238,263436,전라북도,전주시,덕진구 송천동2가 1358-3번지 103호
689,031-713-7975,"경기도 성남시 분당구 성남대로 275, A동 101-1호 (정자동, 삼성아데나팰리스아파트)",더클래스동물메디컬센터,209457,428762,경기도,성남시,분당구 정자동 169-1 삼성아데나팰리스아파트 A동 101-1호
690,02-2038-7555,"서울특별시 중구 다산로 230, 하나빌딩 1층 (신당동)",메종동물병원,201342,451247,서울특별시,중구,신당동 102-6번지
691,062-956-7566,광주광역시 광산구 하남대로 142 (월곡동),광주다온동물병원,182536,186750,광주광역시,광산구,월곡동 679-6번지
692,2666-7990,"서울특별시 강서구 마곡서로 133, 712동 102-1호 (마곡동, 마곡엠밸리7단지)",참동물병원,184333,451471,서울특별시,강서구,마곡동 743-4번지 마곡엠밸리7단지
693,064-756-8275,"제주특별자치도 제주시 동화로 12, 1층 (화북일동)",삼화 훈 동물병원,160209,2583,제주특별자치도,제주시,화북일동 1221-2
694,042-488-2777,"대전광역시 서구 둔산로 57, 1~3층 (둔산동)",타임동물메디컬센터,234066,316818,대전광역시,서구,둔산동 1276
695,234094640,서울특별시 성동구 광나루로 337 (송정동),수동물병원,205869,449587,서울특별시,성동구,송정동 79-2번지
696,5614667,"인천광역시 서구 탁옥로74번길 16, 113호 (심곡동)",연희동물병원,171424,448953,인천광역시,서구,심곡동 303-6
697,02-719-8275,"서울특별시 용산구 청파로47길 16, 지상1층 (청파동2가)",원스동물병원,197234,449192,서울특별시,용산구,청파동2가 90-20번지 지상1층
698,051-756-0075,"부산광역시 수영구 광남로 125, 1층 (광안동)",바다동물병원,392768,185787,부산광역시,수영구,광안동 174-5번지
699,02-2234-7585,"서울특별시 중구 청계천로 400, 지하 1층 (황학동, 롯데캐슬베네치아)",웰니스클리닉(청계천점),201824,452077,서울특별시,중구,황학동 2545 롯데캐슬베네치아
700,02-6952-2475,"경기도 광명시 오리로 870, 서희스타힐스빌딩 2층 (철산동)",광명 24 아이디동물의료센터,188075,441552,경기도,광명시,철산동 259
701,054-283-8275,경상북도 포항시 남구 오천읍 냉천로 310,굿모닝동물병원,417260,276771,경상북도,포항시,남구 오천읍 원리 939번지
702,031-875-7553,"경기도 의정부시 평화로 205, 1층 (호원동)",다빈치동물병원,204127,467535,경기도,의정부시,호원동 454-23
703,031-8023-9073,"경기도 성남시 수정구 수정로 287, 2층 (신흥동)",스타동물의료센터,212888,438698,경기도,성남시,수정구 신흥동 30-2 2층
704,02-540-7522,"서울특별시 강남구 언주로 813, 3층 (신사동)",케어덴 동물치과&내과병원,202837,446751,서울특별시,강남구,신사동 627-21 3층
705,051-205-2323,"부산광역시 사하구 하신중앙로 182, 2층 201호 (신평동)",정직한 동물병원,378878,179070,부산광역시,사하구,신평동 409-1
706,999-7582,서울특별시 도봉구 우이천로 446-3 (쌍문동),동물병원 비아츠,201440,461201,서울특별시,도봉구,쌍문동 474-4
707,061-337-9737,"전라남도 나주시 재신길 10, 미도방 1층 (송월동)",지웅동물병원,173846,169274,전라남도,나주시,송월동 1130-1 미도방
708,02-6953-7599,"서울특별시 송파구 백제고분로 506, 2층 (방이동, 올림픽타워빌)",바로슬동물병원,210148,445888,서울특별시,송파구,방이동 180-3 올림픽타워빌
709,031-638-7585,"경기도 이천시 신둔면 황무로 158, 2층",협신가축동물병원「산업동물에 대한 출장진료를 전문으로 함」,232900,422395,경기도,이천시,신둔면 용면리 368-3
710,054-382-1357,대구광역시 군위군 군위읍 중앙1길 17,우성동물병원,340720,304453,대구광역시,군위군,군위읍 서부리 151-31
711,054-383-7728,"대구광역시 군위군 군위읍 군청로 49-33, A동 1층",군위축협 동물병원,340733,304317,대구광역시,군위군,군위읍 서부리 154-17
712,031-928-6569,"경기도 양주시 옥정로 208, 선양프라자 (옥정동)",양주 센트럴 동물병원,208045,479742,경기도,양주시,옥정동 963-9 선양프라자
713,031-655-7533,"경기도 안성시 공도읍 서동대로 4081, 216호",다가온 동물병원,214065,388659,경기도,안성시,공도읍 용두리 752 216호
714,033-563-0198,강원특별자치도 정선군 정선읍 정선로 1321,정선가축병원,347019,432108,강원특별자치도,정선군,정선읍 봉양리 220-6
715,031-746-7582,"경기도 성남시 수정구 수정로 273, 수정빌딩 1층 (신흥동)",동물병원 더 하임,212818,438580,경기도,성남시,수정구 신흥동 34 수정빌딩
716,032-724-9898,"경기도 부천시 소향로 181, 상가동 1층 125호 (중동, 센트럴파크 푸르지오)",중동우리아이동물병원,179406,444450,경기도,부천시,중동 1300 센트럴파크 푸르지오
717,033-256-3319,강원특별자치도 춘천시 신동면 정족1길 6,강동동물병원,264514,481251,강원특별자치도,춘천시,신동면 정족리 377-1
718,236-0575,"광주광역시 서구 염화로 97, 1층 (화정동)",Dr.남동물병원,188556,182642,광주광역시,서구,화정동 825-10
719,372-7975,광주광역시 서구 월드컵4강로 88 (화정동),가로수동물병원,188425,182841,광주광역시,서구,화정동 808-13번지
720,368-8288,광주광역시 서구 죽봉대로 135 (광천동),백제동물병원,189326,185150,광주광역시,서구,광천동 625-3번지
721,062-527-7588,광주광역시 서구 하남대로 672 (동천동),유림동물병원,187714,185833,광주광역시,서구,동천동 595 8통6반
722,383-7595,광주광역시 서구 운천로 110-1 (쌍촌동),윌 동물외상센터,187013,182614,광주광역시,서구,쌍촌동 1248-18
723,655-7975,광주광역시 서구 풍금로38번길 59 (풍암동),사랑가득 동물병원,187936,180677,광주광역시,서구,풍암동 987-1
724,375-5110,"광주광역시 서구 화운로 111, 1층 (화정동)",베스트동물병원,188891,183353,광주광역시,서구,화정동 755-19
725,062-671-7007,광주광역시 남구 천변좌로 370 (구동),서현동물병원,191921,182953,광주광역시,남구,구동 37-23
726,653-1175,광주광역시 남구 서문대로 791-1 (주월동),수동물병원,190642,181212,광주광역시,남구,주월동 387-2번지
727,062-674-1232,광주광역시 남구 송암로24번길 52 (송하동),광주축산농협동물병원,189412,178998,광주광역시,남구,송하동 262-1
728,062-682-7553,"광주광역시 남구 봉선로 198 (봉선동, 이마트)",센트럴,192272,180372,광주광역시,남구,봉선동 1064
729,062-352-0101,광주광역시 남구 대남대로 309-1 (월산동),그린동물병원,190326,182279,광주광역시,남구,월산동 1035-18번지
730,062-671-8288,광주광역시 남구 천변좌로 394 (사동),희망동물병원,192085,182764,광주광역시,남구,사동 79번지
731,382-7588,광주광역시 서구 운천로 29 (금호동),좋은동물병원,187064,181803,광주광역시,서구,금호동 753-2
732,652-8788,"광주광역시 남구 서문대로 763 (주월동, 길동물병원)",길동물병원,190564,180933,광주광역시,남구,주월동 404-15
733,062-714-1755,광주광역시 남구 금화로 376 (주월동),이룸외과동물병원,189619,182462,광주광역시,남구,주월동 621-1
734,652-8275,광주광역시 서구 풍암순환로188번길 15 (풍암동),한결동물의료센터,189282,180986,광주광역시,서구,풍암동 1137
735,365-1491,광주광역시 서구 내방로 326(화정동),다나동물병원,188658,184249,광주광역시,서구,화정동 94-10
736,375-1613,광주광역시 서구 상일로 44 (쌍촌동),푸른동물병원,187479,184483,광주광역시,서구,쌍촌동 1348-6
737,062-374-0128,"광주광역시 서구 상무민주로 90, 2층 (쌍촌동)",프렌즈동물병원,187135,184388,광주광역시,서구,쌍촌동 1271-1 2층
738,062-412-7500,광주광역시 남구 봉선로 77(봉선동),봉선아이동물메디컬센터,191342,180849,광주광역시,남구,봉선동 1156-9
739,062-681-5720,"광주광역시 남구 서문대로 403-1, 동물병원 (송하동)",광주동물병원,188885,178368,광주광역시,남구,송하동 492-27번지 동물병원
740,527-8275,광주광역시 동구 필문대로 130-1 (산수동),영재애견종합병원,193613,184439,광주광역시,동구,산수동 542-62번지 9통2반
741,226-7585,광주광역시 동구 중앙로 150 (호남동),신세계 동물병원,191961,183158,광주광역시,동구,호남동 43-1번지
742,227-1023,광주광역시 동구 의재로 27 (학동),황제 동물병원,193635,181532,광주광역시,동구,학동 676-12번지
743,062-223-0075,광주광역시 동구 남문로 675 (학동),광주 한사랑동물병원,193454,181309,광주광역시,동구,학동 859-7번지
744,062-511-7582,"광주광역시 동구 중앙로 358, 상가동 149호 (계림동, 금호계림주상복합)",튼튼동물병원,192660,184962,광주광역시,동구,계림동 100-11번지 금호계림주상복합 상가동 149호
745,473-2255,대구광역시 남구 봉덕로 89 (봉덕동),현대동물병원,344513,261714,대구광역시,남구,봉덕동 554-2
746,474-2266,대구광역시 남구 봉덕로 83 (봉덕동),이천종합동물병원,344457,261718,대구광역시,남구,봉덕동 554-10
747,629-8111,대구광역시 남구 대명로 230 (대명동),대흥동물병원,342866,261245,대구광역시,남구,대명동 332-16 17통2반
748,627-1470,"대구광역시 남구 중앙대로 150, 1층 (봉덕동)",독사랑동물병원,343649,261886,대구광역시,남구,봉덕동 1298-3
749,629-0075,대구광역시 남구 대명로 121 (대명동),리더스동물병원,341854,261091,대구광역시,남구,대명동 1636-19번지
750,741-7573,대구광역시 남구 봉덕로 84 (봉덕동),우리동물병원,344449,261669,대구광역시,남구,봉덕동 555-9번지
751,473-0815,대구광역시 남구 대덕로 149 (봉덕동),알프스동물병원,344428,261289,대구광역시,남구,봉덕동 562-15번지
752,053-765-7877,대구광역시 수성구 동대구로 36 (지산동),대구동물메디컬센터,346695,260488,대구광역시,수성구,지산동 1051
753,053-784-9971,대구광역시 수성구 지범로39길 11 (범물동),베트문동물병원,348329,259066,대구광역시,수성구,범물동 1275-4번지
754,053-742-0075,대구광역시 수성구 달구벌대로 2644 (만촌동),조은동물의료원,349047,263042,대구광역시,수성구,만촌동 854-1
755,053-291-7579,"대구광역시 수성구 용학로 294 (범물동, 덕암빌딩 2층)",멘토동물병원,348206,259197,대구광역시,수성구,범물동 1271-2번지 덕암빌딩 2층
756,053-782-7580,"대구광역시 수성구 무학로 41, 1층 (상동)",스위스동물병원,345703,260062,대구광역시,수성구,상동 413-11 1층
757,053-744-8285,대구광역시 수성구 청호로 484 (만촌동),세인트동물병원,348524,263229,대구광역시,수성구,만촌동 1025-35번지
758,053-794-7975,대구광역시 수성구 달구벌대로 3249 (신매동),그랜드벳동물병원,354588,261224,대구광역시,수성구,신매동 261-16번지
759,053-791-7532,"대구광역시 수성구 달구벌대로 3116-1, 1층 (시지동)",y동물병원,353328,261608,대구광역시,수성구,시지동 258-13번지 1층
760,742-7275,대구광역시 수성구 들안로 412 (범어동),로얄동물병원,346103,264174,대구광역시,수성구,범어동 1161번지
761,746-5575,대구광역시 수성구 들안로 354 (수성동4가),곰아저씨 동물병원,346076,263592,대구광역시,수성구,수성동4가 1017-32번지
762,537681002,대구광역시 수성구 청수로 101 (황금동),마루동물병원,346234,261278,대구광역시,수성구,황금동 889-6번지
763,7167585,대구광역시 수성구 달구벌대로 2354 (수성동3가),범어동물의료센터,346250,263337,대구광역시,수성구,수성동3가 10
764,424-4258,대구광역시 중구 국채보상로 724 (동인동4가),동인동물병원,345306,264337,대구광역시,중구,동인동4가 332
765,803-7370,"대구광역시 중구 달성공원로 35, 달성공원 (달성동)",달성공원 동물병원,342409,264890,대구광역시,중구,달성동 294-1 달성공원
766,654-1444,대구광역시 남구 두류공원로 18-2 (대명동),남부동물병원,342247,261165,대구광역시,남구,대명동 807-13번지 45통1반
767,256-6100,대구광역시 중구 중앙대로 333 (남산동),고려애견종합병원,343799,263692,대구광역시,중구,남산동 661-1번지
768,253-8278,대구광역시 중구 달구벌대로 2114 (봉산동),중부동물병원,343968,263925,대구광역시,중구,봉산동 53-2번지
769,426-1731,대구광역시 중구 달구벌대로 2145-1(삼덕동1가),삼덕종합동물병원,344302,263914,대구광역시,중구,삼덕동1가 41-14
770,254-3366,대구광역시 중구 서성로 34 (남성로),동산동물병원,343300,264434,대구광역시,중구,남성로 1번지 15통5반 205호
771,767-1177,대구광역시 중구 동덕로 56-3 (대봉동),오원석 황금동물병원,344870,263390,대구광역시,중구,대봉동 48-13
772,053-424-9944,대구광역시 중구 대봉로 278 (대봉동),대구축산 동물병원,344433,263764,대구광역시,중구,대봉동 715-15
773,426-7588,"대구광역시 중구 달구벌대로 1975 (대신동, 태왕아너스스카이 상가 101호, 102호, 103호)",대구S동물병원,342612,263923,대구광역시,중구,"대신동 305-1 4통4반 태왕아너스스카이 상가 101호, 102호, 103호"
774,255-8275,대구광역시 중구 동덕로8길 2 (대봉동),원동물병원,344945,263228,대구광역시,중구,대봉동 40-135번지
775,751-9323,대구광역시 수성구 범어로 118 (범어동),범어동물병원,347695,263445,대구광역시,수성구,범어동 225-17번지
776,781-6566,대구광역시 수성구 지산로 41 (지산동),정동물병원,347406,259634,대구광역시,수성구,지산동 1258-11
777,742-4810,대구광역시 수성구 달구벌대로 2259 (수성동4가),사랑동물병원,345358,263522,대구광역시,수성구,수성동4가 1236-44번지
778,746-0031,대구광역시 수성구 화랑로 102 (만촌동),선동물병원,347849,264849,대구광역시,수성구,만촌동 1328-13번지
779,766-9350,"대구광역시 수성구 수성로 185, 상가201동 116호 (중동, 수성 골드클래스 더 센텀)",나라동물병원,345514,261458,대구광역시,수성구,중동 356-7 수성 골드클래스 더 센텀 상가201동 116호
780,761-8875,대구광역시 수성구 동대구로 24 (지산동),두산메디펫동물병원,346674,260343,대구광역시,수성구,지산동 1054-1번지
781,784-2483,대구광역시 수성구 지범로 89 (지산동),지산동물병원,347386,259644,대구광역시,수성구,지산동 1258-13번지
782,746-7111,"대구광역시 수성구 동원로 152, 지하1층 (만촌동)",금강동물병원,347662,264758,대구광역시,수성구,만촌동 1326-14 지하1층
783,053-756-8290,대구광역시 수성구 달구벌대로 2475 (범어동),제니스동물병원,347472,263351,대구광역시,수성구,범어동 167-18
784,474-1119,대구광역시 남구 신촌길 101 (봉덕동),효성동물병원,344867,261035,대구광역시,남구,봉덕동 1045-20
785,053-764-8275,대구광역시 수성구 들안로 50 (두산동),리즈 동물병원,346053,260559,대구광역시,수성구,두산동
786,053-616-2480,"대구광역시 달성군 유가읍 테크노상업로 120, 테크노폴리스 M스퀘어+",비슬동물병원,332210,244660,대구광역시,달성군,유가읍 봉리 619 테크노폴리스 M스퀘어+
787,053-614-3570,대구광역시 달성군 유가읍 테크노공원로 51,현풍동물병원,331839,244538,대구광역시,달성군,유가읍 봉리 613
788,611-6203,대구광역시 달성군 현풍읍 국가산단북로 482-22,달성축협동물병원,330277,241789,대구광역시,달성군,현풍읍 대리 186
789,053-586-5575,대구광역시 달성군 다사읍 달구벌대로 844,힐링동물병원,332049,263215,대구광역시,달성군,다사읍 죽곡리 산 61-2번지
790,053-635-5800,대구광역시 달성군 화원읍 사문진로 447,화원연합동물병원,335276,257003,대구광역시,달성군,화원읍 천내리 156-1
791,053-617-8875,대구광역시 달성군 유가읍 테크노중앙대로6길 2-4,테크노연합 동물병원,331780,245127,대구광역시,달성군,유가읍 봉리 583-2
792,573-1175,대구광역시 서구 서대구로 64 (평리동),아이펫동물병원,340517,263744,대구광역시,서구,평리동 1360번지
793,053-552-0075,"대구광역시 서구 서대구로 189, 2층 (평리동)",평리동물병원,340324,264976,대구광역시,서구,평리동 1492-30
794,554-3575,대구광역시 서구 국채보상로 407 (비산동),진동물병원,342223,264701,대구광역시,서구,비산동 400-16번지
795,555-0051,대구광역시 서구 서대구로 136 (평리동),페츠업 동물병원,340400,264436,대구광역시,서구,평리동 1371-3번지
796,559-9020,대구광역시 서구 달서로 165 (비산동),보경동물병원,341799,265236,대구광역시,서구,비산동 511-48번지
797,070-4293-0622,"대구광역시 서구 서대구로 361, 2층 (비산동)",더펫동물병원,340842,266556,대구광역시,서구,비산동 1302-9번지
798,054-452-9393,경상북도 구미시 신시로 60 (형곡동),형곡동물병원,320547,291121,경상북도,구미시,형곡동 857번지
799,054-482-1377,"경상북도 구미시 선산읍 선산대로 1560-5, 1층",구미칠곡축산농협동물병원,317475,306648,경상북도,구미시,선산읍 교리 422-14
800,054-461-7582,"경상북도 구미시 구미대로22길 11, 롯데마트구미점 (신평동)",쿨펫동물병원 구미점,322854,291226,경상북도,구미시,신평동 465번지 롯데마트구미점
801,441-1183,경상북도 구미시 송원서로2길 29 (원평동),강남동물병원,321130,292234,경상북도,구미시,원평동 1060-14번지
802,054-476-8274,경상북도 구미시 인동남길 66 (진평동),베스트동물병원,328184,289789,경상북도,구미시,진평동 5-3번지
803,054-476-7579,경상북도 구미시 산호대로31길 10 (옥계동),구미옥계동물병원,327960,293886,경상북도,구미시,옥계동 739-1
804,814-8005,경상북도 경산시 경안로 226 (중방동),고은동물병원,356864,260011,경상북도,경산시,"중방동 841-5 한국농어촌공사 경산,청도지사"
805,054-832-0342,경상북도 의성군 의성읍 중앙길 44-1,의성동물병원,352303,317721,경상북도,의성군,의성읍 도동리 908-17번지
806,053-813-7580,"경상북도 경산시 펜타힐즈로 74, 힐즈스퀘어 201호 (중산동)",중산 메디컬 동물병원,355338,260251,경상북도,경산시,중산동 632
807,856-7585,경상북도 경산시 자인면 계정길 67,경산축산농협 동물병원,364233,259121,경상북도,경산시,자인면 서부리 662-9번지
808,054-335-6708,경상북도 영천시 금호읍 금호로 118,미래연합동물병원,369110,271761,경상북도,영천시,금호읍 교대리
809,054-333-8275,경상북도 영천시 호국로 65 (야사동),영천동물병원,375353,276593,경상북도,영천시,야사동 179-6
810,054-331-3375,경상북도 영천시 장수로 58 (화룡동),대운 동물병원,372972,275662,경상북도,영천시,화룡동 282-4번지
811,054-336-6179,"경상북도 영천시 선창길 11, 1층 (도림동)",아진동물병원,373910,281505,경상북도,영천시,도림동 709-1 외 1필지(709)
812,054-331-0137,경상북도 영천시 충효로 56-1 (문외동),한솔동물병원,374539,276384,경상북도,영천시,문외동 258-2번지
813,054-336-7772,경상북도 영천시 시장4길 41-1 (완산동),우리동물병원,374775,275557,경상북도,영천시,완산동 994-62번지
814,054-911-8275,경상북도 김천시 양금로 195 (황금동),백두동물병원,301004,290720,경상북도,김천시,황금동 167-30번지
815,433-0075,인천광역시 남동구 남동대로 912 (간석동),주식회사 이십사시 독스동물병원,174140,440219,인천광역시,남동구,간석동 210-2
816,437-8275,"인천광역시 남동구 논고개로 71 (논현동, 가산타워 104호)",우리집동물병원,175742,432916,인천광역시,남동구,논현동 746-6 가산타워 104호
817,431-7975,인천광역시 남동구 구월로 159 (간석동),파스텔LC동물병원,174120,439479,인천광역시,남동구,간석동 292-4
818,715-7959,"인천광역시 남동구 남동대로799번길 34, 판매시설동 3층 C307~315호 (구월동, 신영구월지웰시티푸르지오)",인천 24시 스카이동물메디컬센터,174015,439163,인천광역시,남동구,구월동 1608 신영구월지웰시티푸르지오
819,429-1673,인천광역시 남동구 문화서로3번길 7 (구월동),보람동물병원,172928,438246,인천광역시,남동구,구월동 1394-9번지
820,438-3227,인천광역시 남동구 소래역남로16번길 75 (논현동),소래동물병원,176289,433116,인천광역시,남동구,논현동 751-1
821,467-0275,"인천광역시 남동구 서창남순환로 2, 2층 (서창동)",보듬동물병원,177832,435843,인천광역시,남동구,서창동 663-1번지
822,422-5399,"인천광역시 남동구 석산로 35, 112, 113-1호 (간석동)",정서동물병원,173149,440079,인천광역시,남동구,간석동
823,466-7975,인천광역시 남동구 인하로 608 (구월동),애니힐동물병원,174645,437872,인천광역시,남동구,구월동 1526-1번지
824,462-0070,인천광역시 남동구 만수서로 60 (만수동),메이동물병원,176282,439952,인천광역시,남동구,만수동 1118-1번지
825,468-7975,"인천광역시 남동구 서창남로 71, 101,102호 (서창동)",물빛동물병원,177667,435966,인천광역시,남동구,서창동 687-1번지
826,251-7575,"인천광역시 남동구 인주대로591번길 64, 타원벨라움 205호 (구월동)",찬샘동물병원,173668,439029,인천광역시,남동구,구월동 1132 타원벨라움
827,464-4488,인천광역시 남동구 구월로 364 (만수동),젬마동물병원,176138,439216,인천광역시,남동구,만수동 948-4
828,463-9066,인천광역시 남동구 백범로 260 (간석동),세우리동물병원,175209,439920,인천광역시,남동구,간석동 921-15번지
829,467-8450,인천광역시 남동구 담방로 52-1 (만수동),만수동물병원,176836,438049,인천광역시,남동구,만수동 1025-11번지
830,428-8275,인천광역시 남동구 백범로 400 (간석동),마이펫 동물병원,173999,440637,인천광역시,남동구,간석동 216-4번지
831,469-7782,인천광역시 남동구 만수로 25 (만수동),좋은 친구들 동물병원,176166,439707,인천광역시,남동구,만수동 869-11번지
832,437-5535,인천광역시 남동구 백범로 469 (간석동),동암동물병원,173300,440722,인천광역시,남동구,간석동 570-5
833,469-7588,인천광역시 남동구 구월로 314 (만수동),행복한 동물병원,175643,439271,인천광역시,남동구,만수동 916-2
834,434-6002,"인천광역시 남동구 남동대로 737 (구월동,1층)",소망동물병원,174013,438486,인천광역시,남동구,구월동 1149-5 1층
835,433-0755,"인천광역시 남동구 남동대로 910, 동성빌딩 1층 (간석동)",인천24시유앤미동물병원,174138,440196,인천광역시,남동구,간석동 210-9 동성빌딩
836,423-0975,"인천광역시 남동구 소래역남로16번길 75,  B103-2호 (논현동)",논현동물병원,176289,433116,인천광역시,남동구,논현동 751-1번지
837,439-3578,"인천광역시 남동구 은봉로312번길 29-14, 101호 (논현동)",강아지와고양이나라 동물병원,175645,433636,인천광역시,남동구,논현동 605-11번지
838,032)434-7525,"인천광역시 남동구 백범로 457, 105~107호 (간석동,성우네오빌)",D&C동물병원,173408,440677,인천광역시,남동구,간석동 573-1번지 성우네오빌 105~107호
839,862-0975,"인천광역시 남동구 경원대로 971, 2층 (간석동, 홈플러스)",도그플러스동물병원,172420,440866,인천광역시,남동구,간석동 616-3번지
840,439-0039,인천광역시 남동구 문화로 65 (구월동),동물의왕국 동물병원,173271,438129,인천광역시,남동구,구월동 1406-9번지
841,032)439-8822,"인천광역시 남동구 논현남로 19, 101,102호 (논현동)",해피동물병원,175363,433505,인천광역시,남동구,논현동 619-15번지
842,433-7582,"인천광역시 남동구 남동대로 757, 2층 (구월동)",웰동물메디컬센터,174013,438718,인천광역시,남동구,구월동 1145-6번지
843,710-1237,"인천광역시 남동구 백범로 232, 1,2층 (만수동)",루이스24시동물병원,175486,439872,인천광역시,남동구,만수동 850-5
844,467-1275,인천광역시 남동구 구월로 317 (만수동),길동물병원,175684,439316,인천광역시,남동구,만수동 889-15번지
845,469-8275,인천광역시 남동구 장승로 24 (만수동),해맑은동물병원,176513,438199,인천광역시,남동구,만수동 1079-3번지
846,467-8575,"인천광역시 남동구 구월로 65 (간석동, 현대홈타운 102동 상가104호)",덕수동물병원,173203,439593,인천광역시,남동구,간석동 900-153번지
847,466-8670,인천광역시 남동구 만수로 10 (만수동),하태흥반려동물의료센터,176091,439584,인천광역시,남동구,만수동 102-8번지
848,468-7533,"인천광역시 남동구 만경로18번길 6 (만수동, 105호)",신세계동물병원,175833,439445,인천광역시,남동구,만수동 879-2번지
849,462-2550,"인천광역시 남동구 남촌동로25번길 11 (남촌동,1층)",필종합동물병원,174796,436647,인천광역시,남동구,남촌동 333-5번지 1층
850,437-7582,"인천광역시 남동구 예술로 198, CGV 홈플러스 1층 (구월동)",백슬동물병원,173552,438906,인천광역시,남동구,구월동 1130번지 CGV 홈플러스
851,032-872-7582,인천광역시 미추홀구 소성로 121 (학익동),지오동물병원,170067,438019,인천광역시,미추홀구,학익동 437-31
852,032-866-5725,인천광역시 미추홀구 인주대로 168 (용현동),온누리동물병원,169457,439344,인천광역시,미추홀구,용현동 146-275
853,032-886-0079,인천광역시 미추홀구 주안로 73 (주안동),아라종합동물병원,171431,440291,인천광역시,미추홀구,주안동 241-9
854,032-203-0075,인천광역시 미추홀구 석정로 400 (주안동),주안동물병원,171607,440552,인천광역시,미추홀구,주안동 24-2
855,032-868-2526,인천광역시 미추홀구 인주대로 277 (주안동),삼성동물종합병원,170496,438984,인천광역시,미추홀구,주안동 678-7
856,032-203-0072,인천광역시 미추홀구 토금중로 36 (용현동),페트로 동물병원,167829,439017,인천광역시,미추홀구,용현동 621-68
857,032-889-7582,"인천광역시 미추홀구 독배로432번길 3, 1층 (숭의동)",브라운동물병원,168911,439622,인천광역시,미추홀구,숭의동 293-19번지 1층
858,032-875-7566,"인천광역시 미추홀구 소성로 6 (용현동, 홈플러스 인하점 지하1층)",아이러브펫동물병원,169028,438450,인천광역시,미추홀구,용현동 648 홈플러스 인하점 지하1층 8동
859,032-868-2626,"인천광역시 미추홀구 한나루로 379 (학익동, 제중빌딩)",학익동물병원,170108,437810,인천광역시,미추홀구,학익동 214-4
860,032-876-8575,인천광역시 미추홀구 소성로 136 (학익동),바른동물병원,170165,437915,인천광역시,미추홀구,학익동 260-22
861,032-204-7707,"인천광역시 미추홀구 독배로 305, 201호 (용현동)",하인츠동물병원,168947,438427,인천광역시,미추홀구,용현동 604-5 이한프라자
862,032-427-7588,"인천광역시 미추홀구 미추홀대로 620, 1층 (주안동)",펫홈종합동물병원,171633,438995,인천광역시,미추홀구,주안동 1471-11
863,032-885-7578,인천광역시 중구 제물량로 60-1 (신흥동3가),현대동물병원,167694,440456,인천광역시,중구,신흥동3가 6-11
864,772-7533,인천광역시 중구 우현로 51 (내동),참 동물병원,167059,441139,인천광역시,중구,내동 209-42
865,032-818-1020,"인천광역시 연수구 새말로 27, 동남아파트 1층 115호 (연수동)",그루동물병원,171155,435800,인천광역시,연수구,연수동 536 동남아파트 115호
866,032-710-4575,"인천광역시 연수구 해돋이로 168-7, 레드원프라자 103호 (송도동)",베리떼 동물병원,168558,432703,인천광역시,연수구,송도동 21-11 레드원프라자 103호
867,032-721-7582,"인천광역시 연수구 컨벤시아대로230번길 42, 송도아라플라자 202호 (송도동)",닥터정 동물병원,167593,431851,인천광역시,연수구,송도동 98-2번지 송도아라플라자
868,032-863-7582,인천광역시 미추홀구 미추홀대로 533 (주안동),닥터파파동물병원,171487,438144,인천광역시,미추홀구,주안동 1309
869,032-424-3331,인천광역시 미추홀구 경인로 417-1 (주안동),중앙가축병원,172201,439620,인천광역시,미추홀구,주안동 72-11
870,032-887-2952,인천광역시 미추홀구 낙섬중로 25 (용현동),한국동물병원,167783,438796,인천광역시,미추홀구,용현동 627-399
871,032-887-1537,"인천광역시 미추홀구 낙섬중로 53, 1층 (용현동)",안상수동물병원,167919,439038,인천광역시,미추홀구,용현동 622-149
872,032-876-7585,인천광역시 미추홀구 경인로354번길 6 (주안동),아나파동물병원,171546,439608,인천광역시,미추홀구,주안동 505-1번지
873,765-9988,인천광역시 중구 개항로 68 (경동),경동동물병원,167195,441151,인천광역시,중구,경동 240-60번지
874,761-6560,"인천광역시 중구 우현로90번길 27, 1층 (용동)",한양한방동물병원,167296,441316,인천광역시,중구,용동 133
875,751-4598,"인천광역시 중구 운남동로3번길 9, 1층 (운남동)",신공항동물병원,158658,443045,인천광역시,중구,운남동 1570-2
876,032-752-4575,"인천광역시 중구 자연대로 40, 109호 (중산동, 비젼프라자II)",숲속동물병원,161030,443067,인천광역시,중구,중산동 1886-20
877,032-864-0075,"인천광역시 미추홀구 인하로 287, 2층 (주안동)",24시 건국 본 동물병원,171615,438503,인천광역시,미추홀구,주안동 1464-22
878,032-772-8275,"인천광역시 동구 송림로 113, 송영빌딩 2층 (송림동)",송림동물병원,168725,441693,인천광역시,동구,송림동 49-13 송영빌딩
879,032-765-7582,인천광역시 동구 봉수대로 82 (송림동),웰니스 클리닉 동물병원,169908,442377,인천광역시,동구,송림동 296-2번지 이마트
880,766-6833,인천광역시 동구 동산로 78 (송림동),동산동물병원,168630,441422,인천광역시,동구,송림동 60-30번지
881,032-832-1175,"인천광역시 연수구 컨벤시아대로 100, 602동 143, 144호 (송도동, 현대힐스테이트)",미라클 동물병원,168706,432519,인천광역시,연수구,송도동 21-65번지 현대힐스테이트 602동 143호
882,032-815-8275,"인천광역시 연수구 송도과학로27번길 55, 상가 A동 216호 (송도동, 롯데캐슬캠퍼스타운)",디오 동물병원,170269,431825,인천광역시,연수구,송도동 149번지 롯데캐슬캠퍼스타운 상가 A동
883,032-822-7588,"인천광역시 연수구 먼우금로 88, 105호 (동춘동, 상산빌딩)",드림동물병원,170746,433898,인천광역시,연수구,동춘동 937-11번지 상산빌딩 105호
884,032-205-7582,"인천광역시 연수구 센트럴로 194, B동 1층 101호 (송도동, 더샵 센트럴파크2)",ACE동물병원,168142,432552,인천광역시,연수구,송도동 23-4 더샵 센트럴파크2 B동 101호
885,032-816-5457,"인천광역시 연수구 학나래로6번길 34, 민선빌딩 2층 (선학동)",동물사랑동물병원,173192,435863,인천광역시,연수구,선학동 407-9 민선빌딩
886,032-833-1770,인천광역시 연수구 독배로 55(옥련동),노성남 동물병원,168452,436007,인천광역시,연수구,옥련동 196
887,032-858-7582,"인천광역시 연수구 해돋이로 107, E동 10,11호 (송도동, 송도더샵퍼스트월드)",주주동물병원,168780,432168,인천광역시,연수구,"송도동 4-1 송도더샵퍼스트월드 E동 10,11호"
888,032-821-8275,인천광역시 연수구 함박로 74-1(연수동),신퍼피클럽 동물병원,172090,435953,인천광역시,연수구,연수동 522-3
889,032-858-9703,"인천광역시 연수구 송도국제대로372번길 21, 자연학습관 (송도동)",인천광역시 야생동물구조관리센터,167776,429532,인천광역시,연수구,송도동 13-20 자연학습관
890,032-834-7583,"인천광역시 연수구 해돋이로 114, 서운프라자 2층 (송도동)",아름다운 동물병원,168929,432281,인천광역시,연수구,송도동 3-29 서운프라자
891,032-821-0975,"인천광역시 연수구 경원대로 184, 이마트 1층 (동춘동)",웰니스클리닉 연수점,171699,433624,인천광역시,연수구,동춘동 926-9 이마트
892,032-812-8275,"인천광역시 연수구 앵고개로 260, 맘모스빌딩 (동춘동)",이광수동물병원,170911,434009,인천광역시,연수구,동춘동 936-6 맘모스빌딩
893,032-833-7575,"인천광역시 연수구 비류대로 194, 1층 (옥련동)",아프리카동물병원,169514,436235,인천광역시,연수구,옥련동 304-12
894,032-832-7588,"인천광역시 연수구 한나루로 185, 청학만신당 1층 101,102호 (옥련동)",송도종합동물병원,169504,436050,인천광역시,연수구,옥련동 336-8 청학만신당
895,032-851-5575,"인천광역시 연수구 신송로 122, 송도프라자 117호 (송도동)",프라자 동물병원,169154,432698,인천광역시,연수구,송도동 2-6 송도프라자 117호
896,032-811-2220,"인천광역시 연수구 송도문화로28번길 28, 상가 203동 207호 (송도동, 송도글로벌캠퍼스푸르지오)",송도건국동물병원,169269,430570,인천광역시,연수구,송도동 190-2번지 송도글로벌캠퍼스푸르지오 상가 203동 207호
897,032-834-7275,"인천광역시 연수구 컨벤시아대로 55, 상가동 107호 (송도동, 이안아파트)",24시 송도힐 동물메디컬센터,169113,432784,인천광역시,연수구,송도동 2-3 이안아파트 상가동 107호
898,032-811-7553,인천광역시 연수구 용담로 145 (연수동),따뜻한 동물병원,171631,434619,인천광역시,연수구,연수동 624-7번지
899,032-819-2852,"인천광역시 연수구 먼우금로 189 (청학동, 소망글로벌)",웰 동물병원,171236,434774,인천광역시,연수구,청학동 503-3번지 소망글로벌 109호
900,063-463-5575,"전라북도 군산시 수송로 208 (수송동, 형진빌딩)",수송반려동물병원,174514,273751,전라북도,군산시,수송동 858-7
901,063-442-7531,전라북도 군산시 구암3.1로 137 (경암동),쿨펫동물병원(이마트군산점),176004,275856,전라북도,군산시,경암동 590-296
902,468-7975,전라북도 군산시 문화로 121 (수송동),더사랑 동물병원,174594,274475,전라북도,군산시,수송동 68-1번지
903,063-532-5652,"전라북도 정읍시 시기4길 30, 녹십자동물병원 (시기동)",녹십자동물병원,187383,228306,전라북도,정읍시,시기동 96-6번지 녹십자동물병원
904,063-537-7588,전라북도 정읍시 충정로 319 (연지동),청수동물병원,186196,230457,전라북도,정읍시,연지동 37-4번지
905,063-538-8575,"전라북도 정읍시 중앙로 83-1, 마이펫종합동물병원 (수성동)",My pet 동물병원,186284,229976,전라북도,정읍시,수성동 837번지 마이펫종합동물병원
906,537-6556,전라북도 정읍시 벚꽃로 28 (농소동),유한회사 키움팜동물병원,185660,231660,전라북도,정읍시,농소동 49-215번지
907,063-533-6831,전라북도 정읍시 북면 정읍북로 710-1 (순정축산업협동조합TMF사료공장),순정축협 동물병원,190563,235425,전라북도,정읍시,북면 한교리 12-1번지
908,536-8275,"전라북도 정읍시 서부산업도로 437, (유)동성건설 (농소동)",다산동물병원,186583,231669,전라북도,정읍시,농소동 73-26 (유)동성건설
909,063-445-2544,"전라북도 군산시 중앙로 61 (장재동, 연합가축병원)",연합동물병원,174652,275511,전라북도,군산시,장재동 206-5번지 7통3반
910,063451-2163,전라북도 군산시 대야면 대야시장로 9-1 (군옥동물병원),군옥동물병원,183344,271649,전라북도,군산시,대야면 산월리 400-5번지 1통
911,063-446-4572,"전라북도 군산시 미원로 132-3 (장재동, 금강종합동물병원)",금강동물병원,174591,275536,전라북도,군산시,장재동 812-1 41통2반 군산수송동제일오투그란데 2단지 502동 1204호
912,063-466-8886,전라북도 군산시 공단대로 429 (나운동),스마일동물병원,172385,273601,전라북도,군산시,나운동 845-5번지
913,063-446-6688,"전라북도 군산시 월명로 211, 군산수송동우체국 1층 (수송동)",가족동물병원,174236,273661,전라북도,군산시,수송동 820-6번지 군산수송동우체국
914,063-466-8711,전라북도 군산시 팔마로 154-1 (동흥남동),푸른동물병원,174522,274840,전라북도,군산시,동흥남동 400-15번지
915,063-464-7582,"전라북도 군산시 하나운로 75, 해맑은동물병원 (나운동)",해맑은 동물병원,173069,273923,전라북도,군산시,나운동 100-12번지 해맑은동물병원
916,461-5079,전라북도 군산시 진포로 73 (미장동),군산24시 제일동물병원,175530,274027,전라북도,군산시,미장동 495-6
917,063-351-3050,전라북도 장수군 장수읍 교촌로 47-3,현대 동물병원,247274,238713,전라북도,장수군,장수읍 장수리 214-8번지
918,063-351-2391,전라북도 장수군 장수읍 중동길 8,무진장축협동물병원,246967,238741,전라북도,장수군,장수읍 장수리 483-7
919,063-350-3761,"전라북도 장수군 장계면 육십령로 764-5, 장수경주마목장",KRA 장수동물병원,259072,247320,전라북도,장수군,장계면 명덕리 1 장수경주마목장
920,535-4276,"전라북도 정읍시 관통로 14, 누나분식 (장명동)",대한동물병원,187338,229525,전라북도,정읍시,장명동 164-4번지 누나분식
921,533-9890,전라북도 정읍시 태인면 정읍북로 1250-1,김용태동물병원,194380,239070,전라북도,정읍시,태인면 태창리
922,063-537-1041,"전라북도 정읍시 충정로 199, 다나동물병원 (장명동)",다나동물병원,187131,229753,전라북도,정읍시,장명동 80-1번지 다나동물병원
923,063-653-9007,전라북도 순창군 순창읍 경천1로 114,이완섭동물병원,212903,207663,전라북도,순창군,순창읍 교성리 659-8
924,063-653-2002,전라북도 순창군 순창읍 순화로 22,원 동물병원,212389,208516,전라북도,순창군,순창읍 순화리 483-2번지
925,063-322-5698,전라북도 무주군 무주읍 한풍루로 291,박동물병원,259253,278302,전라북도,무주군,무주읍 당산리 1256-4번지
926,323-2423,전라북도 무주군 안성면 안성로 298-6,제일동물병원,259109,263253,전라북도,무주군,안성면 장기리 1334-1번지
927,322-2695,전라북도 무주군 무주읍 단천로2길 16,이무석동물병원,259009,278599,전라북도,무주군,무주읍 읍내리 1135-2번지 8통3반
928,546-8594,전라북도 김제시 금구면 콩쥐팥쥐로 622,서해동물병원(출장전문),197091,257248,전라북도,김제시,금구면 청운리 517-3번지
929,063-542-6786,전라북도 김제시 콩쥐팥쥐로 35(검산동),전주김제완주축협 김제지점 부설 동물병원,191694,256324,전라북도,김제시,검산동 480-15
930,222-4119,전라북도 전주시 완산구 모악로 4704 (평화동2가),푸른하늘 동물병원,211814,254362,전라북도,전주시,완산구 평화동2가 299-1번지
931,247-6677,전라북도 전주시 덕진구 견훤로 247 (인후동1가),송 동물의료센터,214158,259320,전라북도,전주시,덕진구 인후동1가 448-33번지
932,063-542-4223,전라북도 김제시 콩쥐팥쥐로 125 (순동),동진강낙협동물병원,192471,256723,전라북도,김제시,순동 761-1
933,063-232-5900,"전라북도 전주시 완산구 모악로 4692, 매직카 (평화동2가)",하루동물병원,211771,254250,전라북도,전주시,완산구 평화동2가 302-3 매직카
934,063-227-4975,전라북도 전주시 완산구 거마평로 86 (삼천동1가),프렌즈동물병원,210510,255555,전라북도,전주시,완산구 삼천동1가 592-1
935,253-5677,"전라북도 전주시 덕진구 송천중앙로 17, 1층 (덕진동2가)",하나 동물병원,210636,260970,전라북도,전주시,덕진구 덕진동2가 167-156번지
936,281-0075,전라북도 전주시 완산구 충경로 11 (다가동3가),늘푸른 동물병원,212646,257434,전라북도,전주시,완산구 다가동3가 24-9번지
937,036-241-7275,전라북도 전주시 덕진구 안덕원로 238 (인후동1가),바른 동물병원,213756,259570,전라북도,전주시,덕진구 인후동1가 772-1
938,063-255-4567,전라북도 전주시 덕진구 기린대로 284 (진북동),전북동물병원,212691,258976,전라북도,전주시,덕진구 진북동 342-6
939,272-8575,전라북도 전주시 덕진구 송천중앙로 177 (송천동1가),힐링동물병원,210884,262522,전라북도,전주시,덕진구 송천동1가 486-16
940,063-244-7509,전라북도 전주시 덕진구 건산로 290 (우아동2가),산책동물병원,215175,259546,전라북도,전주시,덕진구 우아동2가 866-11
941,063-276-7500,전라북도 전주시 완산구 감나무3길 4 (서신동),마루 동물병원,210984,258971,전라북도,전주시,완산구 서신동 780-4번지
942,063-274-7500,전라북도 전주시 덕진구 안덕원로 165 (인후동2가),모래내동물병원,213111,259320,전라북도,전주시,덕진구 인후동2가 234-1
943,632295333,전라북도 전주시 덕진구 기지로 72 (중동),혁신동물병원,205345,259775,전라북도,전주시,덕진구 중동 774-1번지
944,227-8275,전라북도 전주시 완산구 서원로 72 (효자동2가),웰동물병원,209180,257035,전라북도,전주시,완산구 효자동2가 1255-2번지
945,246-7155,전라북도 전주시 덕진구 동부대로 582 (산정동),대영동물병원,215027,260267,전라북도,전주시,덕진구 산정동 800-11번지
946,632731202,전라북도 전주시 덕진구 천마산로 65 (송천동2가),스마일동물병원,211511,262761,전라북도,전주시,덕진구 송천동2가 202-59번지
947,063-275-7979,전라북도 전주시 덕진구 송천중앙로 213 (송천동1가),24시 올리몰스 동물메디컬센터,210872,262879,전라북도,전주시,덕진구 송천동1가 809-3
948,632457975,전라북도 전주시 완산구 중화산로 100 (중화산동2가),코끼리 동물병원,210621,257697,전라북도,전주시,완산구 중화산동2가 591-10 기아모터스
949,247-8874,전라북도 전주시 덕진구 아중로 142 (인후동1가),아프리카 동물병원,214866,258390,전라북도,전주시,덕진구 인후동1가 928-1번지 대명가치맨션 101동 703호
950,255-0630,전라북도 전주시 완산구 세내로 509-1 (효자동3가),전주동물병원,209219,259116,전라북도,전주시,완산구 효자동3가 1480-3번지
951,063-902-7975,전라북도 전주시 완산구 모악로 4769 (평화동1가),24시 코끼리동물병원,211871,255014,전라북도,전주시,완산구 평화동1가 708-2
952,063-225-7588,전라북도 전주시 완산구 거마평로 170 (효자동1가),데이지동물병원,210452,256411,전라북도,전주시,완산구 효자동1가 388
953,063-276-7675,전라북도 전주시 덕진구 두간1길 5 (송천동1가),하트동물병원,210880,262746,전라북도,전주시,덕진구 송천동1가 812-3
954,285-7975,전라북도 전주시 완산구 백제대로 332(중화산동2가),메이동물메디컬센터,211066,258079,전라북도,전주시,완산구 중화산동2가 261-13
955,063-211-6677,전라북도 전주시 덕진구 쪽구름2길 16-2 (동산동),이지동물병원,206809,263775,전라북도,전주시,덕진구 동산동 682-23번지
956,281-6740,"전라북도 전주시 덕진구 소리로 68 (덕진동1가, 전주동물원)",동물치유쉼터,212994,261750,전라북도,전주시,덕진구 덕진동1가 73-48
957,211-2662,전라북도 전주시 덕진구 쪽구름로 71-2 (반월동),푸른 동물병원,206804,263515,전라북도,전주시,덕진구 반월동 248-7번지
958,063-228-5311,"전라북도 전주시 완산구 서원로 294, 마리앤스튜디오 (중화산동2가)",나음동물메디컬센터,211359,256841,전라북도,전주시,완산구 중화산동2가 535-4 마리앤스튜디오
959,224-6672,전라북도 전주시 완산구 백제대로 121 (효자동1가),효자 동물병원,211110,255972,전라북도,전주시,완산구 효자동1가 563-8
960,226-3333,전라북도 전주시 완산구 용머리로 86 (효자동1가),우리동물병원,210722,256237,전라북도,전주시,완산구 효자동1가 276-7번지
961,253-2747,전라북도 전주시 완산구 서신로 33 (서신동),서신동물병원,210370,258701,전라북도,전주시,완산구 서신동 831-4
962,231-2455,전라북도 전주시 완산구 기린대로 139 (경원동3가),동부 동물병원,213672,257885,전라북도,전주시,완산구 경원동3가 3-10
963,063-240-2888,전라북도 전주시 덕진구 동부대로 769 (호성동1가),전주김제완주축협 부속동물병원,214051,261847,전라북도,전주시,덕진구 호성동1가 711-4
964,251-1015,전라북도 전주시 덕진구 시천로 26 (송천동1가),21세기 동물병원,210310,262378,전라북도,전주시,덕진구 송천동1가 626-42
965,244-0090,전라북도 전주시 덕진구 건산로 243 (인후동1가),행복한 동물병원,214709,259424,전라북도,전주시,덕진구 인후동1가 806-6번지
966,433-7742,전라북도 진안군 부귀면 전진로 2693,호남가축병원,232572,253302,전라북도,진안군,부귀면 신정리 110-16번지
967,583-1323,전라북도 부안군 부안읍 진성길 11,자연낙농동물병원,176255,247224,전라북도,부안군,부안읍 봉덕리 793-4번지
968,063-262-8575,"전라북도 완주군 고산면 읍내5길 8, 나래빌딩",우리가축병원,218773,274992,전라북도,완주군,고산면 읍내리 549-22번지 나래빌딩
969,063-263-5100,전라북도 완주군 봉동읍 봉동동서로 40,이영준동물병원,214145,270530,전라북도,완주군,봉동읍 낙평리 926-3
970,245-7588,전라북도 완주군 용진읍 완주로 179,연합동물병원,213975,264563,전라북도,완주군,용진읍 상운리 74-2
971,063-291-6200,전라북도 완주군 삼례읍 삼봉로 5-1,최동물병원,206510,267858,전라북도,완주군,삼례읍 삼례리 923-63번지
972,9537599,충청남도 서천군 서천읍 서천로 159,장동호동물병원,171738,286894,충청남도,서천군,서천읍 사곡리 275-2
973,064-796-3610,"제주특별자치도 제주시 한림읍 동명남길 6, 2층",팜앤팜동물병원,132452,-11173,제주특별자치도,제주시,한림읍 동명리 903-6
974,064-725-0175,제주특별자치도 제주시 산천단남길 42 (아라일동),제주대학교 말전문동물병원,159318,-5284,제주특별자치도,제주시,아라일동 6-27
975,064-749-7585,제주특별자치도 제주시 도령로 129 (연동),24시똑똑똑 동물메디컬센터,152600,-260,제주특별자치도,제주시,연동 2333-8
976,031-425-7541,"경기도 의왕시 포일세거리로 3, 112호 (포일동, 파레사타워)",포일동물병원,198580,432653,경기도,의왕시,포일동 662번지
977,031-424-7580,"경기도 의왕시 양지편2로 3, 세종프라자 (청계동)",청계종합동물병원,199473,432005,경기도,의왕시,청계동 990 세종프라자
978,031-423-4033,"경기도 의왕시 포일로 59, 호성상가 1층 3,4호 (포일동)",늘솜동물병원,198084,432055,경기도,의왕시,포일동 546번지 호성상가
979,064-796-8275,제주특별자치도 제주시 한림읍 금악로 41,금악동물병원,134565,-14825,제주특별자치도,제주시,한림읍 금악리 2031-24
980,799-7582,제주특별자치도 제주시 중앙로 536 (아라일동),나아라 동물병원,157610,-2239,제주특별자치도,제주시,아라일동 6096-3
981,064-747-5006,제주특별자치도 제주시 애월읍 하귀동남1길 2-5,제주동물병원,145303,-1200,제주특별자치도,제주시,애월읍 하귀1리 197-1
982,064-711-7572,"제주특별자치도 제주시 도령로 136, 진빌딩 (연동)",웰니스 동물병원,152681,-261,제주특별자치도,제주시,연동 280-28번지 진빌딩
983,759-7975,"제주특별자치도 제주시 1100로 3213-27 (노형동, 천마에코피아2차)",노형동물병원,151731,-2146,제주특별자치도,제주시,노형동 683-1 천마에코피아2차
984,064-748-7572,"제주특별자치도 제주시 한경면 청수로 129, 1층",한빛동물병원,130296,-20232,제주특별자치도,제주시,한경면 청수리 701-6
985,064-747-3000,제주특별자치도 제주시 인다10길 31 (아라일동),한사랑 동물병원,157997,-2328,제주특별자치도,제주시,아라일동 6116-11번지
986,070-7721-0075,제주특별자치도 제주시 애월읍 광상로 323-20,마리네 동물병원,144032,-5880,제주특별자치도,제주시,애월읍 유수암리 1969번지
987,757-8275,제주특별자치도 제주시 연삼로 522 (일도이동),이스턴동물병원,157650,614,제주특별자치도,제주시,일도이동 72-2번지
988,064-747-7585,"제주특별자치도 제주시 연북로 18, 노형이타스 2 (노형동)",나음동물병원,151884,-1512,제주특별자치도,제주시,노형동 711-5번지 노형이타스 2
989,064-749-7533,"제주특별자치도 제주시 노연로 131, 두성빌딩 (연동)",리더스동물병원,152925,-1045,제주특별자치도,제주시,연동 293-19번지 두성빌딩
990,064-749-1801,"제주특별자치도 제주시 수덕로 13 (노형동, 노형이화2차아파트)",예서동물병원,151137,-823,제주특별자치도,제주시,노형동 1057-2 노형이화2차아파트
991,064-796-8661,"제주특별자치도 제주시 한림읍 한림상로 127-2, 지층",제주양돈농협 동물병원,131699,-9212,제주특별자치도,제주시,한림읍 한림리 925-1
992,064-747-1375,"제주특별자치도 제주시 우령서로 89 (외도일동, 해마루풍경)",백록동물병원,146685,-1199,제주특별자치도,제주시,외도일동 640-2 해마루풍경
993,031-949-1275,"경기도 파주시 와석순환로 431, 105호 (와동동, 신운정프라자)",행복플러스동물병원,178167,469051,경기도,파주시,와동동 1365-3번지 신운정프라자 105호
994,031-935-5675,"경기도 파주시 미래로 371, 2층 203호 (동패동)",운정24시동물의료센터,177520,467658,경기도,파주시,동패동 1759-6 2층 203호
995,462-8277,경기도 의왕시 부곡중앙로 41 (삼동),유동물병원,195815,424373,경기도,의왕시,삼동 208-10번지
996,064-757-7582,"제주특별자치도 제주시 중앙로 351, 1층 (이도이동)",튼튼동물병원,156991,-553,제주특별자치도,제주시,이도이동 1987-14
997,064-753-2007,제주특별자치도 제주시 조천읍 남조로 1760,마야동물병원,169727,-7833,제주특별자치도,제주시,조천읍 교래리 221번지
998,746-7410,"제주특별자치도 제주시 신광로 105, 103, 104호 (연동)",찬`s 동물병원,152531,-1414,제주특별자치도,제주시,연동 276-11번지
999,064-745-9975,제주특별자치도 제주시 애월읍 일주서로 7143,봄이든 동물병원,145275,-996,제주특별자치도,제주시,애월읍 하귀1리 492-8번지
1000,727-8442,제주특별자치도 제주시 중앙로 581 (아라일동),아라동물병원,157719,-2679,제주특별자치도,제주시,아라일동 6139번지
